{"type":"FeatureCollection","features":[{"type":"Feature","geometry":{"type":"Polygon","coordinates":[[[107.0216,-5.9207,0.0],[107.0197,-5.9213,0.0],[107.0302,-5.9315,0.0],[107.0326,-5.9329,0.0],[107.0307,-5.931,0.0],[107.0337,-5.9295,0.0],[107.0366,-5.931,0.0],[107.0375,-5.9326,0.0],[107.0362,-5.9314,0.0],[107.037,-5.9326,0.0],[107.0338,-5.9341,0.0],[107.0341,-5.9352,0.0],[107.0359,-5.935,0.0],[107.0359,-5.9365,0.0],[107.0316,-5.9357,0.0],[107.0316,-5.934,0.0],[107.0262,-5.9301,0.0],[107.0242,-5.9322,0.0],[107.0234,-5.9306,0.0],[107.022,-5.9316,0.0],[107.0186,-5.9268,0.0],[107.0159,-5.9268,0.0],[107.015,-5.925,0.0],[107.0118,-5.9238,0.0],[107.013,-5.9213,0.0],[107.0097,-5.9217,0.0],[107.0094,-5.9228,0.0],[107.0113,-5.9242,0.0],[107.007,-5.9275,0.0],[107.0049,-5.9271,0.0],[107.0005,-5.9315,0.0],[106.9865,-5.9357,0.0],[106.985,-5.938,0.0],[106.9859,-5.9392,0.0],[106.9889,-5.9394,0.0],[106.9901,-5.9449,0.0],[106.9913,-5.9428,0.0],[106.9939,-5.9429,0.0],[106.9933,-5.9422,0.0],[106.9958,-5.9405,0.0],[107.0054,-5.9423,0.0],[107.0113,-5.9495,0.0],[107.016,-5.9586,0.0],[107.0179,-5.9707,0.0],[107.0171,-5.9734,0.0],[107.0184,-5.9742,0.0],[107.0164,-5.9747,0.0],[107.0172,-5.976,0.0],[107.0148,-5.9765,0.0],[107.0161,-5.9793,0.0],[107.0146,-5.9798,0.0],[107.0159,-5.9809,0.0],[107.0141,-5.9816,0.0],[107.013,-5.9806,0.0],[107.014,-5.9824,0.0],[107.0123,-5.9829,0.0],[107.0134,-5.9838,0.0],[107.0119,-5.9873,0.0],[107.0106,-5.9873,0.0],[107.01,-5.9896,0.0],[107.0111,-5.9906,0.0],[107.0093,-5.9928,0.0],[107.0104,-5.9937,0.0],[107.0087,-5.9946,0.0],[107.0094,-5.9967,0.0],[107.0078,-5.9966,0.0],[107.0083,-5.9989,0.0],[107.0023,-6.0037,0.0],[106.9985,-6.0049,0.0],[106.9974,-6.0042,0.0],[106.9954,-6.007,0.0],[106.9934,-6.0072,0.0],[107.0051,-6.0133,0.0],[107.0061,-6.0156,0.0],[107.0039,-6.0178,0.0],[107.0009,-6.0179,0.0],[106.9981,-6.0141,0.0],[106.9954,-6.0137,0.0],[106.9942,-6.0114,0.0],[106.9947,-6.0231,0.0],[106.996,-6.0238,0.0],[106.9947,-6.0253,0.0],[106.9952,-6.0282,0.0],[107.0026,-6.025,0.0],[107.0029,-6.0237,0.0],[107.0058,-6.0247,0.0],[107.007,-6.0234,0.0],[107.0069,-6.0244,0.0],[107.0117,-6.0236,0.0],[107.012,-6.025,0.0],[107.0124,-6.0232,0.0],[107.0149,-6.0271,0.0],[107.0142,-6.0281,0.0],[107.0156,-6.0293,0.0],[107.0161,-6.0345,0.0],[107.0134,-6.0353,0.0],[107.011,-6.0384,0.0],[107.0071,-6.0382,0.0],[107.0069,-6.0394,0.0],[107.0092,-6.0413,0.0],[107.0064,-6.0444,0.0],[107.0067,-6.046,0.0],[107.0044,-6.0463,0.0],[107.0064,-6.0496,0.0],[107.0036,-6.0482,0.0],[106.9978,-6.0496,0.0],[106.9975,-6.0478,0.0],[106.995,-6.0472,0.0],[106.9901,-6.0483,0.0],[106.9888,-6.0457,0.0],[106.9848,-6.0501,0.0],[106.9815,-6.0512,0.0],[106.9797,-6.0507,0.0],[106.9774,-6.0472,0.0],[106.9736,-6.0492,0.0],[106.9733,-6.052,0.0],[106.9718,-6.0526,0.0],[106.9754,-6.057,0.0],[106.9774,-6.0545,0.0],[106.9797,-6.0556,0.0],[106.9847,-6.0549,0.0],[106.9845,-6.0537,0.0],[106.9885,-6.0505,0.0],[106.9906,-6.0534,0.0],[106.9952,-6.0543,0.0],[106.9967,-6.0528,0.0],[106.9972,-6.0572,0.0],[107.0,-6.0576,0.0],[106.9987,-6.059,0.0],[107.0001,-6.0623,0.0],[106.9989,-6.0631,0.0],[107.0016,-6.0699,0.0],[107.0028,-6.0697,0.0],[107.0074,-6.0743,0.0],[107.0113,-6.0734,0.0],[107.0161,-6.0769,0.0],[107.0113,-6.0795,0.0],[107.0107,-6.0758,0.0],[107.0096,-6.0757,0.0],[107.0101,-6.0774,0.0],[107.0075,-6.0781,0.0],[107.0074,-6.0799,0.0],[107.006,-6.0787,0.0],[107.0026,-6.0796,0.0],[107.0035,-6.082,0.0],[107.0022,-6.0856,0.0],[107.0021,-6.0789,0.0],[107.0003,-6.0769,0.0],[106.9981,-6.0774,0.0],[106.9973,-6.0814,0.0],[106.9955,-6.082,0.0],[106.9916,-6.0792,0.0],[106.9932,-6.0846,0.0],[106.9901,-6.0867,0.0],[106.9884,-6.084,0.0],[106.9742,-6.0867,0.0],[106.9733,-6.0849,0.0],[106.9737,-6.0869,0.0],[106.9706,-6.0883,0.0],[106.97,-6.0908,0.0],[106.971,-6.0963,0.0],[106.9699,-6.1143,0.0],[106.9711,-6.1248,0.0],[106.9696,-6.1327,0.0],[106.9703,-6.1402,0.0],[106.9726,-6.1462,0.0],[106.971,-6.1465,0.0],[106.9707,-6.1505,0.0],[106.9722,-6.1507,0.0],[106.9716,-6.1689,0.0],[106.9726,-6.1694,0.0],[106.973,-6.175,0.0],[106.9791,-6.1756,0.0],[106.979,-6.1726,0.0],[106.9803,-6.1725,0.0],[107.0106,-6.1724,0.0],[107.0097,-6.177,0.0],[107.0067,-6.1774,0.0],[107.0061,-6.18,0.0],[107.0063,-6.1837,0.0],[107.0075,-6.1848,0.0],[107.0064,-6.1932,0.0],[107.0119,-6.1929,0.0],[107.0116,-6.195,0.0],[107.0155,-6.1953,0.0],[107.0183,-6.2,0.0],[107.0197,-6.1989,0.0],[107.0199,-6.1964,0.0],[107.0338,-6.1988,0.0],[107.0327,-6.2054,0.0],[107.034,-6.2062,0.0],[107.0321,-6.2085,0.0],[107.034,-6.2122,0.0],[107.0308,-6.2156,0.0],[107.0331,-6.22,0.0],[107.0318,-6.221,0.0],[107.0303,-6.2266,0.0],[107.034,-6.2268,0.0],[107.0345,-6.2289,0.0],[107.0384,-6.2304,0.0],[107.0387,-6.2325,0.0],[107.0424,-6.2338,0.0],[107.0417,-6.2452,0.0],[107.0389,-6.2472,0.0],[107.0352,-6.2467,0.0],[107.0308,-6.2499,0.0],[107.0296,-6.2531,0.0],[107.0245,-6.2549,0.0],[107.02,-6.2635,0.0],[107.0179,-6.2628,0.0],[107.0165,-6.2657,0.0],[107.0177,-6.273,0.0],[107.0144,-6.2797,0.0],[107.0141,-6.2864,0.0],[107.0156,-6.2874,0.0],[107.0146,-6.2907,0.0],[107.0155,-6.2912,0.0],[107.0222,-6.2807,0.0],[107.0275,-6.2779,0.0],[107.0302,-6.2815,0.0],[107.0366,-6.2827,0.0],[107.0379,-6.2844,0.0],[107.0376,-6.2863,0.0],[107.0402,-6.2875,0.0],[107.0411,-6.2956,0.0],[107.0385,-6.3063,0.0],[107.0412,-6.3074,0.0],[107.0376,-6.3135,0.0],[107.0373,-6.3214,0.0],[107.034,-6.3236,0.0],[107.0325,-6.3232,0.0],[107.0304,-6.3255,0.0],[107.029,-6.3301,0.0],[107.0208,-6.3278,0.0],[107.0194,-6.3304,0.0],[107.0165,-6.3304,0.0],[107.0156,-6.3344,0.0],[107.0125,-6.3395,0.0],[107.0154,-6.3411,0.0],[107.0146,-6.3427,0.0],[107.013,-6.3426,0.0],[107.0164,-6.3446,0.0],[107.0151,-6.3459,0.0],[107.0156,-6.3496,0.0],[107.0175,-6.3511,0.0],[107.0163,-6.3579,0.0],[107.0157,-6.3571,0.0],[107.0143,-6.3587,0.0],[107.0107,-6.3577,0.0],[107.0067,-6.3603,0.0],[107.0067,-6.3589,0.0],[107.005,-6.3581,0.0],[107.0056,-6.3567,0.0],[107.0044,-6.3566,0.0],[107.005,-6.3554,0.0],[107.0019,-6.3538,0.0],[106.9997,-6.3556,0.0],[107.0009,-6.3591,0.0],[106.9996,-6.3605,0.0],[106.9964,-6.3591,0.0],[106.993,-6.3605,0.0],[106.991,-6.3635,0.0],[106.9947,-6.3661,0.0],[106.9936,-6.372,0.0],[106.9969,-6.3744,0.0],[106.9969,-6.3764,0.0],[106.9993,-6.377,0.0],[106.9976,-6.3788,0.0],[107.0019,-6.3789,0.0],[107.0036,-6.3777,0.0],[107.0036,-6.3758,0.0],[107.0044,-6.3777,0.0],[107.0064,-6.378,0.0],[107.0032,-6.3866,0.0],[107.0063,-6.3878,0.0],[107.0066,-6.3895,0.0],[107.0073,-6.3886,0.0],[107.0081,-6.3911,0.0],[107.0093,-6.3916,0.0],[107.0106,-6.3903,0.0],[107.0123,-6.3913,0.0],[107.0085,-6.3955,0.0],[107.0087,-6.4016,0.0],[107.01,-6.4024,0.0],[107.0125,-6.4009,0.0],[107.0135,-6.403,0.0],[107.0141,-6.4017,0.0],[107.02,-6.4005,0.0],[107.0209,-6.4018,0.0],[107.0199,-6.4047,0.0],[107.0224,-6.4038,0.0],[107.0224,-6.4051,0.0],[107.0243,-6.4049,0.0],[107.0216,-6.4076,0.0],[107.0231,-6.4076,0.0],[107.0235,-6.4094,0.0],[107.0268,-6.4088,0.0],[107.0268,-6.4101,0.0],[107.0296,-6.4098,0.0],[107.0307,-6.4113,0.0],[107.0333,-6.4094,0.0],[107.0349,-6.4054,0.0],[107.038,-6.4051,0.0],[107.0415,-6.4069,0.0],[107.0461,-6.4028,0.0],[107.0472,-6.398,0.0],[107.0514,-6.3944,0.0],[107.0548,-6.3957,0.0],[107.0551,-6.3972,0.0],[107.0625,-6.3991,0.0],[107.0613,-6.4015,0.0],[107.0588,-6.4008,0.0],[107.059,-6.4031,0.0],[107.057,-6.4029,0.0],[107.0545,-6.4051,0.0],[107.0544,-6.4068,0.0],[107.0568,-6.4071,0.0],[107.0583,-6.4105,0.0],[107.0544,-6.4127,0.0],[107.0576,-6.4156,0.0],[107.0555,-6.4166,0.0],[107.0554,-6.4155,0.0],[107.0522,-6.4154,0.0],[107.0512,-6.4172,0.0],[107.0552,-6.4207,0.0],[107.0545,-6.4194,0.0],[107.0564,-6.4176,0.0],[107.0567,-6.4223,0.0],[107.0584,-6.4231,0.0],[107.0572,-6.4242,0.0],[107.0589,-6.4267,0.0],[107.0559,-6.4275,0.0],[107.0546,-6.4293,0.0],[107.0578,-6.4296,0.0],[107.0594,-6.4336,0.0],[107.0553,-6.4348,0.0],[107.0554,-6.4357,0.0],[107.0577,-6.4356,0.0],[107.0576,-6.4367,0.0],[107.0612,-6.4339,0.0],[107.0639,-6.4342,0.0],[107.0732,-6.4402,0.0],[107.0791,-6.4425,0.0],[107.0855,-6.4485,0.0],[107.0895,-6.4487,0.0],[107.0905,-6.4505,0.0],[107.1053,-6.4568,0.0],[107.1066,-6.4596,0.0],[107.1096,-6.4606,0.0],[107.1135,-6.4646,0.0],[107.1187,-6.4655,0.0],[107.12,-6.4682,0.0],[107.1227,-6.4683,0.0],[107.1291,-6.4718,0.0],[107.1309,-6.471,0.0],[107.1305,-6.4698,0.0],[107.1293,-6.47,0.0],[107.1314,-6.4681,0.0],[107.1329,-6.4686,0.0],[107.1323,-6.4636,0.0],[107.1384,-6.4682,0.0],[107.1408,-6.4716,0.0],[107.1445,-6.4717,0.0],[107.1462,-6.4729,0.0],[107.1467,-6.4717,0.0],[107.1542,-6.4748,0.0],[107.1597,-6.4791,0.0],[107.162,-6.4793,0.0],[107.1617,-6.4808,0.0],[107.174,-6.4858,0.0],[107.1715,-6.4805,0.0],[107.1756,-6.4789,0.0],[107.1783,-6.4797,0.0],[107.1808,-6.4781,0.0],[107.1811,-6.475,0.0],[107.1787,-6.4737,0.0],[107.1828,-6.4735,0.0],[107.1822,-6.4678,0.0],[107.1857,-6.4672,0.0],[107.1843,-6.4709,0.0],[107.1861,-6.4714,0.0],[107.1892,-6.4697,0.0],[107.1896,-6.4639,0.0],[107.1925,-6.4631,0.0],[107.1951,-6.4638,0.0],[107.196,-6.4609,0.0],[107.198,-6.4615,0.0],[107.1987,-6.4637,0.0],[107.1991,-6.4605,0.0],[107.2017,-6.4611,0.0],[107.2089,-6.4682,0.0],[107.2132,-6.4645,0.0],[107.2149,-6.4644,0.0],[107.2169,-6.4614,0.0],[107.2127,-6.455,0.0],[107.2054,-6.4519,0.0],[107.2079,-6.4493,0.0],[107.2111,-6.4525,0.0],[107.2117,-6.4493,0.0],[107.207,-6.4411,0.0],[107.202,-6.4361,0.0],[107.2067,-6.4349,0.0],[107.2037,-6.4261,0.0],[107.1977,-6.4249,0.0],[107.1962,-6.423,0.0],[107.2001,-6.422,0.0],[107.2035,-6.4235,0.0],[107.2054,-6.4217,0.0],[107.2037,-6.4199,0.0],[107.202,-6.4139,0.0],[107.2122,-6.4172,0.0],[107.213,-6.4092,0.0],[107.2173,-6.4077,0.0],[107.2214,-6.4081,0.0],[107.2221,-6.4004,0.0],[107.2199,-6.3962,0.0],[107.2212,-6.3842,0.0],[107.2187,-6.3834,0.0],[107.2191,-6.3806,0.0],[107.2144,-6.3796,0.0],[107.2127,-6.3772,0.0],[107.2128,-6.3745,0.0],[107.2115,-6.3757,0.0],[107.2116,-6.3791,0.0],[107.2105,-6.3796,0.0],[107.2076,-6.3787,0.0],[107.2048,-6.3757,0.0],[107.2055,-6.3692,0.0],[107.2104,-6.3659,0.0],[107.2101,-6.3638,0.0],[107.2075,-6.3615,0.0],[107.2107,-6.3613,0.0],[107.2132,-6.3638,0.0],[107.2153,-6.3618,0.0],[107.2131,-6.3567,0.0],[107.215,-6.3499,0.0],[107.223,-6.3519,0.0],[107.2266,-6.3492,0.0],[107.2256,-6.3418,0.0],[107.2234,-6.3388,0.0],[107.2236,-6.3354,0.0],[107.2206,-6.3345,0.0],[107.2187,-6.3311,0.0],[107.2158,-6.3311,0.0],[107.2147,-6.33,0.0],[107.216,-6.3277,0.0],[107.2191,-6.326,0.0],[107.2186,-6.3214,0.0],[107.2247,-6.3206,0.0],[107.2231,-6.3184,0.0],[107.2186,-6.3183,0.0],[107.2174,-6.3151,0.0],[107.2199,-6.3131,0.0],[107.2218,-6.3166,0.0],[107.2239,-6.3163,0.0],[107.2246,-6.3102,0.0],[107.2276,-6.3093,0.0],[107.2242,-6.3078,0.0],[107.2238,-6.3061,0.0],[107.2278,-6.3045,0.0],[107.2294,-6.3022,0.0],[107.233,-6.3037,0.0],[107.2331,-6.299,0.0],[107.2351,-6.3007,0.0],[107.2355,-6.3071,0.0],[107.2385,-6.3061,0.0],[107.2393,-6.3037,0.0],[107.2364,-6.2988,0.0],[107.2365,-6.2967,0.0],[107.242,-6.2967,0.0],[107.2457,-6.2996,0.0],[107.2478,-6.2983,0.0],[107.2473,-6.2956,0.0],[107.2487,-6.2933,0.0],[107.2509,-6.2929,0.0],[107.255,-6.2948,0.0],[107.2551,-6.2905,0.0],[107.2611,-6.2861,0.0],[107.2643,-6.286,0.0],[107.2619,-6.282,0.0],[107.2633,-6.2801,0.0],[107.2647,-6.2808,0.0],[107.2656,-6.2842,0.0],[107.2671,-6.2846,0.0],[107.268,-6.2807,0.0],[107.2653,-6.2785,0.0],[107.2661,-6.2744,0.0],[107.2761,-6.267,0.0],[107.276,-6.2631,0.0],[107.2734,-6.2584,0.0],[107.2778,-6.2536,0.0],[107.2745,-6.2412,0.0],[107.2691,-6.232,0.0],[107.2744,-6.2336,0.0],[107.2821,-6.2289,0.0],[107.2837,-6.2259,0.0],[107.2807,-6.2234,0.0],[107.2749,-6.2225,0.0],[107.2723,-6.219,0.0],[107.2722,-6.2169,0.0],[107.2733,-6.2158,0.0],[107.2786,-6.2154,0.0],[107.291,-6.217,0.0],[107.2931,-6.2142,0.0],[107.294,-6.2066,0.0],[107.2966,-6.2029,0.0],[107.296,-6.2013,0.0],[107.2921,-6.2017,0.0],[107.2908,-6.2006,0.0],[107.2921,-6.1901,0.0],[107.2906,-6.1871,0.0],[107.2862,-6.1839,0.0],[107.287,-6.1782,0.0],[107.286,-6.1753,0.0],[107.2794,-6.1711,0.0],[107.2799,-6.1658,0.0],[107.2786,-6.162,0.0],[107.2812,-6.1573,0.0],[107.2885,-6.1563,0.0],[107.2892,-6.1493,0.0],[107.2927,-6.1414,0.0],[107.291,-6.1405,0.0],[107.289,-6.1419,0.0],[107.2858,-6.1487,0.0],[107.2824,-6.148,0.0],[107.281,-6.1448,0.0],[107.2839,-6.1373,0.0],[107.2834,-6.1354,0.0],[107.2795,-6.1334,0.0],[107.2812,-6.1276,0.0],[107.2779,-6.127,0.0],[107.2728,-6.1305,0.0],[107.2706,-6.1297,0.0],[107.2694,-6.1156,0.0],[107.2653,-6.1113,0.0],[107.2625,-6.111,0.0],[107.2515,-6.1162,0.0],[107.2485,-6.1161,0.0],[107.2482,-6.1037,0.0],[107.2468,-6.1011,0.0],[107.2433,-6.101,0.0],[107.2375,-6.1044,0.0],[107.2301,-6.1026,0.0],[107.2216,-6.1039,0.0],[107.2117,-6.0997,0.0],[107.2026,-6.0935,0.0],[107.1891,-6.0893,0.0],[107.187,-6.0863,0.0],[107.1881,-6.079,0.0],[107.1857,-6.0766,0.0],[107.1822,-6.0773,0.0],[107.1789,-6.0812,0.0],[107.177,-6.0817,0.0],[107.1719,-6.0759,0.0],[107.1596,-6.0677,0.0],[107.1568,-6.0679,0.0],[107.1516,-6.0728,0.0],[107.1436,-6.0713,0.0],[107.1404,-6.0636,0.0],[107.1405,-6.0572,0.0],[107.1384,-6.0579,0.0],[107.1357,-6.0629,0.0],[107.1335,-6.0636,0.0],[107.1307,-6.0622,0.0],[107.1327,-6.0557,0.0],[107.1368,-6.0556,0.0],[107.1362,-6.0496,0.0],[107.1285,-6.0546,0.0],[107.1266,-6.0543,0.0],[107.1244,-6.0509,0.0],[107.1278,-6.0474,0.0],[107.1265,-6.0461,0.0],[107.1217,-6.0471,0.0],[107.1191,-6.0396,0.0],[107.1133,-6.0388,0.0],[107.1113,-6.0289,0.0],[107.1051,-6.0288,0.0],[107.0993,-6.025,0.0],[107.0961,-6.0279,0.0],[107.0943,-6.0277,0.0],[107.0935,-6.0259,0.0],[107.095,-6.0221,0.0],[107.1016,-6.0162,0.0],[107.0997,-6.0145,0.0],[107.0936,-6.0143,0.0],[107.092,-6.0058,0.0],[107.0846,-6.0023,0.0],[107.0883,-5.9954,0.0],[107.0875,-5.9928,0.0],[107.0844,-5.9908,0.0],[107.0872,-5.9872,0.0],[107.0848,-5.985,0.0],[107.0878,-5.9853,0.0],[107.0899,-5.9834,0.0],[107.0876,-5.9823,0.0],[107.0886,-5.9801,0.0],[107.0856,-5.9793,0.0],[107.09,-5.9764,0.0],[107.0885,-5.9756,0.0],[107.091,-5.9727,0.0],[107.0896,-5.9684,0.0],[107.0971,-5.9613,0.0],[107.0954,-5.9585,0.0],[107.0936,-5.9579,0.0],[107.094,-5.9557,0.0],[107.0953,-5.9552,0.0],[107.0983,-5.9397,0.0],[107.0951,-5.937,0.0],[107.0895,-5.935,0.0],[107.0812,-5.9361,0.0],[107.0512,-5.9275,0.0],[107.0528,-5.9287,0.0],[107.0513,-5.9294,0.0],[107.0506,-5.9331,0.0],[107.0549,-5.9286,0.0],[107.0572,-5.9324,0.0],[107.0586,-5.932,0.0],[107.0584,-5.9335,0.0],[107.0593,-5.9328,0.0],[107.0584,-5.935,0.0],[107.0573,-5.935,0.0],[107.0579,-5.9372,0.0],[107.0601,-5.933,0.0],[107.0574,-5.9305,0.0],[107.0597,-5.93,0.0],[107.0594,-5.9321,0.0],[107.0605,-5.9328,0.0],[107.061,-5.932,0.0],[107.0621,-5.9338,0.0],[107.0603,-5.933,0.0],[107.0619,-5.9345,0.0],[107.0613,-5.9367,0.0],[107.0648,-5.9382,0.0],[107.065,-5.9433,0.0],[107.075,-5.9431,0.0],[107.0747,-5.95,0.0],[107.0707,-5.9502,0.0],[107.0707,-5.9561,0.0],[107.0724,-5.9577,0.0],[107.0694,-5.9574,0.0],[107.0691,-5.9609,0.0],[107.0668,-5.9608,0.0],[107.0662,-5.9628,0.0],[107.0614,-5.9631,0.0],[107.0618,-5.9646,0.0],[107.0527,-5.964,0.0],[107.0525,-5.9609,0.0],[107.0489,-5.9589,0.0],[107.0457,-5.9613,0.0],[107.0463,-5.9589,0.0],[107.0437,-5.9551,0.0],[107.0422,-5.9562,0.0],[107.0414,-5.9537,0.0],[107.0376,-5.9549,0.0],[107.0397,-5.9509,0.0],[107.0369,-5.9501,0.0],[107.0381,-5.949,0.0],[107.0364,-5.9497,0.0],[107.0403,-5.9462,0.0],[107.0387,-5.9438,0.0],[107.0422,-5.9417,0.0],[107.0404,-5.9415,0.0],[107.0416,-5.9411,0.0],[107.0416,-5.9394,0.0],[107.039,-5.9372,0.0],[107.0395,-5.936,0.0],[107.0376,-5.9354,0.0],[107.0391,-5.933,0.0],[107.0397,-5.9339,0.0],[107.0409,-5.933,0.0],[107.0398,-5.9267,0.0],[107.0385,-5.9271,0.0],[107.0398,-5.9304,0.0],[107.0373,-5.9312,0.0],[107.0353,-5.9259,0.0],[107.0366,-5.9238,0.0],[107.0353,-5.9233,0.0],[107.0318,-5.926,0.0],[107.0216,-5.9207,0.0]]]},"properties":{"namobj":"Bekasi","wadmkk":"Bekasi","wadmpr":"Jawa Barat","kdpkab":"32.16","luaswh":1255.0009093799999}}]}