{"type": "FeatureCollection", "features": [{"type": "Feature", "geometry": {"type": "Point", "coordinates": [107.1279283, -6.328414]}, "properties": {"osm_type": "node", "osm_id": 1283809940, "name": "Subway", "amenity": "fast_food", "cuisine": "sandwich", "kelurahan": null, "kecamatan": "Cikarang Selatan", "jalan": "jalan meranti 1", "desa": "Sukaresmi"}}, {"type": "Feature", "geometry": {"type": "Point", "coordinates": [107.1475747, -6.2971623]}, "properties": {"osm_type": "node", "osm_id": 1994721937, "name": "Paparons Pizza", "amenity": "fast_food", "cuisine": null, "kelurahan": null, "kecamatan": "Cikarang Selatan", "jalan": null, "desa": "Pasirsari"}}, {"type": "Feature", "geometry": {"type": "Point", "coordinates": [107.0870162, -6.2804838]}, "properties": {"osm_type": "node", "osm_id": 3178470614, "name": "RM Bagindo", "amenity": "restaurant", "cuisine": null, "kelurahan": null, "kecamatan": "Cikarang Barat", "jalan": null, "desa": "Gandasari"}}, {"type": "Feature", "geometry": {"type": "Point", "coordinates": [107.1065444, -6.2666762]}, "properties": {"osm_type": "node", "osm_id": 4167435042, "name": "Pujasera", "amenity": "food_court", "cuisine": null, "kelurahan": null, "kecamatan": null, "jalan": "Jalan Taman Aster", "desa": "Telagaasih"}}, {"type": "Feature", "geometry": {"type": "Point", "coordinates": [107.205038, -6.3481372]}, "properties": {"osm_type": "node", "osm_id": 4546692166, "name": "KFC", "amenity": "fast_food", "cuisine": "chicken", "kelurahan": null, "kecamatan": "Cikarang Pusat", "jalan": null, "desa": "Pasirtanjung"}}, {"type": "Feature", "geometry": {"type": "Point", "coordinates": [107.0367657, -6.3227405]}, "properties": {"osm_type": "node", "osm_id": 5748395651, "name": "Grand Festival", "amenity": "food_court", "cuisine": null, "kelurahan": null, "kecamatan": null, "jalan": "Jl.Grand Residence Boulevard", "desa": null}}, {"type": "Feature", "geometry": {"type": "Point", "coordinates": [107.0334349, -6.330382]}, "properties": {"osm_type": "node", "osm_id": 5749056198, "name": "RUKO RR BOULEVARD", "amenity": "food_court", "cuisine": null, "kelurahan": null, "kecamatan": null, "jalan": null, "desa": null}}, {"type": "Feature", "geometry": {"type": "Point", "coordinates": [107.0335489, -6.3303924]}, "properties": {"osm_type": "node", "osm_id": 5749056199, "name": "RUKO RR BOULEVARD", "amenity": "food_court", "cuisine": null, "kelurahan": null, "kecamatan": null, "jalan": null, "desa": null}}, {"type": "Feature", "geometry": {"type": "Point", "coordinates": [107.0322954, -6.3313787]}, "properties": {"osm_type": "node", "osm_id": 5749056200, "name": "GRAND LAKE SNACK COURT", "amenity": "food_court", "cuisine": null, "kelurahan": null, "kecamatan": null, "jalan": "JL. GRAND RESIDENCE CITY BOULEVARD", "desa": null}}, {"type": "Feature", "geometry": {"type": "Point", "coordinates": [107.165363, -6.3459065]}, "properties": {"osm_type": "node", "osm_id": 5750007446, "name": "Ikkudo Ichi", "amenity": "restaurant", "cuisine": "japanese", "kelurahan": null, "kecamatan": "Cikarang Pusat", "jalan": null, "desa": "Jayamukti"}}, {"type": "Feature", "geometry": {"type": "Point", "coordinates": [107.2042892, -6.3478329]}, "properties": {"osm_type": "node", "osm_id": 6788803194, "name": "Starbucks", "amenity": "cafe", "cuisine": null, "kelurahan": null, "kecamatan": "Cikarang Pusat", "jalan": null, "desa": "Pasirtanjung"}}, {"type": "Feature", "geometry": {"type": "Point", "coordinates": [106.9901827, -6.1608893]}, "properties": {"osm_type": "node", "osm_id": 8114449758, "name": "Boba Story", "amenity": "cafe", "cuisine": "coffee_shop;thai;burger;bubble_drink", "kelurahan": null, "kecamatan": null, "jalan": "Jalan Taruma Jaya", "desa": "Setiamulya"}}, {"type": "Feature", "geometry": {"type": "Point", "coordinates": [107.101128, -6.257776]}, "properties": {"osm_type": "node", "osm_id": 8174019666, "name": "D'nomi Cafe", "amenity": "cafe", "cuisine": null, "kelurahan": null, "kecamatan": null, "jalan": "Jl. H. Samin", "desa": "Telagaasih"}}, {"type": "Feature", "geometry": {"type": "Point", "coordinates": [107.1638162, -6.3341797]}, "properties": {"osm_type": "node", "osm_id": 8516253163, "name": "Maxx Coffee", "amenity": "cafe", "cuisine": "coffee_shop", "kelurahan": null, "kecamatan": "Cikarang Selatan", "jalan": null, "desa": "Cibatu"}}, {"type": "Feature", "geometry": {"type": "Point", "coordinates": [107.0252913, -6.278816]}, "properties": {"osm_type": "node", "osm_id": 8616862117, "name": "Kabita", "amenity": "fast_food", "cuisine": "juice", "kelurahan": null, "kecamatan": null, "jalan": null, "desa": "Rawasapi"}}, {"type": "Feature", "geometry": {"type": "Point", "coordinates": [107.0252846, -6.278852]}, "properties": {"osm_type": "node", "osm_id": 8616862118, "name": "Gorengan", "amenity": "fast_food", "cuisine": null, "kelurahan": null, "kecamatan": null, "jalan": null, "desa": "Rawasapi"}}, {"type": "Feature", "geometry": {"type": "Point", "coordinates": [107.0179149, -6.2729667]}, "properties": {"osm_type": "node", "osm_id": 8639405434, "name": "Warteg", "amenity": "restaurant", "cuisine": null, "kelurahan": null, "kecamatan": null, "jalan": null, "desa": "Rawasapi"}}, {"type": "Feature", "geometry": {"type": "Point", "coordinates": [107.120366, -6.3416094]}, "properties": {"osm_type": "node", "osm_id": 9468667975, "name": "RM Minang Sepakat", "amenity": "restaurant", "cuisine": "indonesian", "kelurahan": null, "kecamatan": "Cikarang Selatan", "jalan": null, "desa": "Serang"}}, {"type": "Feature", "geometry": {"type": "Point", "coordinates": [107.0887723, -6.269592]}, "properties": {"osm_type": "node", "osm_id": 9753962885, "name": "McDonald's", "amenity": "fast_food", "cuisine": "burger", "kelurahan": null, "kecamatan": "Cikarang Barat", "jalan": null, "desa": "Gandasari"}}, {"type": "Feature", "geometry": {"type": "Point", "coordinates": [107.1419019, -6.3193464]}, "properties": {"osm_type": "node", "osm_id": 9755188132, "name": "Warkop Nitisuka Pasirsari", "amenity": "restaurant", "cuisine": null, "kelurahan": null, "kecamatan": "Cikarang Selatan", "jalan": null, "desa": "Sukaresmi"}}, {"type": "Feature", "geometry": {"type": "Point", "coordinates": [107.0727506, -6.2654184]}, "properties": {"osm_type": "node", "osm_id": 9755203225, "name": "KFC", "amenity": "fast_food", "cuisine": "chicken", "kelurahan": null, "kecamatan": "Tambun Selatan", "jalan": null, "desa": "Mekarsari"}}, {"type": "Feature", "geometry": {"type": "Point", "coordinates": [107.0826558, -6.2632204]}, "properties": {"osm_type": "node", "osm_id": 9755214487, "name": "Warteg Lala", "amenity": "restaurant", "cuisine": null, "kelurahan": null, "kecamatan": "Cikarang Barat", "jalan": null, "desa": "Gandasari"}}, {"type": "Feature", "geometry": {"type": "Point", "coordinates": [107.0461021, -6.2959395]}, "properties": {"osm_type": "node", "osm_id": 9776978295, "name": null, "amenity": "food_court", "cuisine": null, "kelurahan": null, "kecamatan": "Tambun Selatan", "jalan": null, "desa": "Lambangjaya"}}, {"type": "Feature", "geometry": {"type": "Point", "coordinates": [107.1818384, -6.347054]}, "properties": {"osm_type": "node", "osm_id": 9845768117, "name": "Alam Sari", "amenity": "restaurant", "cuisine": "indonesian", "kelurahan": null, "kecamatan": "Cikarang Pusat", "jalan": "Jalana Ganesha Boulevard", "desa": "Jayamukti"}}, {"type": "Feature", "geometry": {"type": "Point", "coordinates": [107.0254397, -6.189897]}, "properties": {"osm_type": "node", "osm_id": 9868715396, "name": "Bubur Ayam Favorit", "amenity": "restaurant", "cuisine": null, "kelurahan": null, "kecamatan": "Tambun Utara", "jalan": null, "desa": "Satriamekar"}}, {"type": "Feature", "geometry": {"type": "Point", "coordinates": [107.1830646, -6.1818229]}, "properties": {"osm_type": "node", "osm_id": 10595884105, "name": null, "amenity": "restaurant", "cuisine": null, "kelurahan": null, "kecamatan": "Sukatani", "jalan": null, "desa": "Sukadarma"}}, {"type": "Feature", "geometry": {"type": "Point", "coordinates": [107.0464575, -6.2778152]}, "properties": {"osm_type": "node", "osm_id": 10744399591, "name": "warung upnormal", "amenity": "cafe", "cuisine": "coffee_shop", "kelurahan": null, "kecamatan": "Tambun Selatan", "jalan": "Jalan Boulevard Grand Wisata", "desa": "Lambangjaya"}}, {"type": "Feature", "geometry": {"type": "Point", "coordinates": [107.0549706, -6.2592466]}, "properties": {"osm_type": "node", "osm_id": 10744584761, "name": "Kopi Oi", "amenity": "cafe", "cuisine": "coffee_shop;indonesian", "kelurahan": null, "kecamatan": "Tambun Selatan", "jalan": null, "desa": "Mangunjaya"}}, {"type": "Feature", "geometry": {"type": "Point", "coordinates": [107.0367949, -6.2684893]}, "properties": {"osm_type": "node", "osm_id": 11175130710, "name": "Pojok Kuliner 19", "amenity": "food_court", "cuisine": null, "kelurahan": null, "kecamatan": "Tambun Selatan", "jalan": null, "desa": "Lambangsari"}}, {"type": "Feature", "geometry": {"type": "Point", "coordinates": [107.0371436, -6.2688919]}, "properties": {"osm_type": "node", "osm_id": 11175130713, "name": "Restoran Simpang Raya", "amenity": "restaurant", "cuisine": "indonesian", "kelurahan": null, "kecamatan": "Tambun Selatan", "jalan": null, "desa": "Lambangsari"}}, {"type": "Feature", "geometry": {"type": "Point", "coordinates": [107.0368271, -6.2688439]}, "properties": {"osm_type": "node", "osm_id": 11175130716, "name": "Burger King", "amenity": "fast_food", "cuisine": "burger", "kelurahan": null, "kecamatan": "Tambun Selatan", "jalan": null, "desa": "Lambangsari"}}, {"type": "Feature", "geometry": {"type": "Point", "coordinates": [107.0366326, -6.2687853]}, "properties": {"osm_type": "node", "osm_id": 11175130717, "name": "Dunkin' Donuts", "amenity": "restaurant", "cuisine": "american", "kelurahan": null, "kecamatan": "Tambun Selatan", "jalan": null, "desa": "Lambangsari"}}, {"type": "Feature", "geometry": {"type": "Point", "coordinates": [107.0365857, -6.268612]}, "properties": {"osm_type": "node", "osm_id": 11175130719, "name": "Solaria", "amenity": "restaurant", "cuisine": "indonesian", "kelurahan": null, "kecamatan": "Tambun Selatan", "jalan": null, "desa": "Lambangsari"}}, {"type": "Feature", "geometry": {"type": "Point", "coordinates": [107.036418, -6.2688319]}, "properties": {"osm_type": "node", "osm_id": 11175130720, "name": "KFC", "amenity": "fast_food", "cuisine": "chicken", "kelurahan": null, "kecamatan": "Tambun Selatan", "jalan": null, "desa": "Lambangsari"}}, {"type": "Feature", "geometry": {"type": "Point", "coordinates": [107.0363805, -6.2689679]}, "properties": {"osm_type": "node", "osm_id": 11175130721, "name": "Starbucks", "amenity": "cafe", "cuisine": null, "kelurahan": null, "kecamatan": "Tambun Selatan", "jalan": null, "desa": "Lambangsari"}}, {"type": "Feature", "geometry": {"type": "Point", "coordinates": [107.0362236, -6.2689399]}, "properties": {"osm_type": "node", "osm_id": 11175130722, "name": "A&W", "amenity": "fast_food", "cuisine": "american", "kelurahan": null, "kecamatan": "Tambun Selatan", "jalan": null, "desa": "Lambangsari"}}, {"type": "Feature", "geometry": {"type": "Point", "coordinates": [107.0391917, -6.2713851]}, "properties": {"osm_type": "node", "osm_id": 11175159073, "name": "Restoran Simpang Raya", "amenity": "restaurant", "cuisine": "indonesian", "kelurahan": null, "kecamatan": "Tambun Selatan", "jalan": null, "desa": "Lambangsari"}}, {"type": "Feature", "geometry": {"type": "Point", "coordinates": [107.0390023, -6.2713202]}, "properties": {"osm_type": "node", "osm_id": 11175159074, "name": "Batavia Cafe", "amenity": "cafe", "cuisine": null, "kelurahan": null, "kecamatan": "Tambun Selatan", "jalan": null, "desa": "Lambangsari"}}, {"type": "Feature", "geometry": {"type": "Point", "coordinates": [107.0854682, -6.2174516]}, "properties": {"osm_type": "node", "osm_id": 11415319624, "name": "Cafe Bonex", "amenity": "cafe", "cuisine": null, "kelurahan": null, "kecamatan": null, "jalan": null, "desa": "Sumberjaya"}}, {"type": "Feature", "geometry": {"type": "Point", "coordinates": [107.0858002, -6.2182242]}, "properties": {"osm_type": "node", "osm_id": 11415319625, "name": "Cafe AMBASADOR Karaoke & House music", "amenity": "cafe", "cuisine": null, "kelurahan": null, "kecamatan": null, "jalan": null, "desa": "Sumberjaya"}}, {"type": "Feature", "geometry": {"type": "Point", "coordinates": [107.0858136, -6.2188295]}, "properties": {"osm_type": "node", "osm_id": 11415319627, "name": "CAFE MAWAR BODAS", "amenity": "cafe", "cuisine": null, "kelurahan": null, "kecamatan": null, "jalan": null, "desa": "Sumberjaya"}}, {"type": "Feature", "geometry": {"type": "Point", "coordinates": [107.0863856, -6.220276]}, "properties": {"osm_type": "node", "osm_id": 11415319628, "name": "CAFE DELTA", "amenity": "cafe", "cuisine": null, "kelurahan": null, "kecamatan": null, "jalan": null, "desa": "Sumberjaya"}}, {"type": "Feature", "geometry": {"type": "Point", "coordinates": [107.0339248, -6.2783577]}, "properties": {"osm_type": "node", "osm_id": 11778567151, "name": "Lembayung Coffee", "amenity": "cafe", "cuisine": null, "kelurahan": null, "kecamatan": "Tambun Selatan", "jalan": null, "desa": "Lambangsari"}}, {"type": "Feature", "geometry": {"type": "Point", "coordinates": [107.0353399, -6.2137487]}, "properties": {"osm_type": "node", "osm_id": 11802403181, "name": "McDonald's", "amenity": "fast_food", "cuisine": "burger", "kelurahan": null, "kecamatan": "Tambun Utara", "jalan": "Jalan Karang Satria", "desa": "Karangsatria"}}, {"type": "Feature", "geometry": {"type": "Point", "coordinates": [107.1961811, -6.3517619]}, "properties": {"osm_type": "node", "osm_id": 11993289559, "name": "Cireng Keraton", "amenity": "fast_food", "cuisine": null, "kelurahan": null, "kecamatan": "Cikarang Pusat", "jalan": null, "desa": "Pasirtanjung"}}, {"type": "Feature", "geometry": {"type": "Point", "coordinates": [107.1968275, -6.3517139]}, "properties": {"osm_type": "node", "osm_id": 11993334427, "name": "Chicol Taste of Korea", "amenity": "fast_food", "cuisine": null, "kelurahan": null, "kecamatan": "Cikarang Pusat", "jalan": null, "desa": "Pasirtanjung"}}, {"type": "Feature", "geometry": {"type": "Point", "coordinates": [107.1965083, -6.3517459]}, "properties": {"osm_type": "node", "osm_id": 11993334428, "name": "Kwetiauw 28 Aho", "amenity": "restaurant", "cuisine": null, "kelurahan": null, "kecamatan": "Cikarang Pusat", "jalan": null, "desa": "Pasirtanjung"}}, {"type": "Feature", "geometry": {"type": "Point", "coordinates": [107.1965298, -6.3518978]}, "properties": {"osm_type": "node", "osm_id": 11993335250, "name": "Chicking", "amenity": "fast_food", "cuisine": null, "kelurahan": null, "kecamatan": "Cikarang Pusat", "jalan": null, "desa": "Pasirtanjung"}}, {"type": "Feature", "geometry": {"type": "Point", "coordinates": [107.195178, -6.351258]}, "properties": {"osm_type": "node", "osm_id": 11993335422, "name": "Blvckbelt", "amenity": "restaurant", "cuisine": null, "kelurahan": null, "kecamatan": "Cikarang Pusat", "jalan": null, "desa": "Pasirtanjung"}}, {"type": "Feature", "geometry": {"type": "Point", "coordinates": [107.1944028, -6.3509888]}, "properties": {"osm_type": "node", "osm_id": 11993337333, "name": "Gamchi", "amenity": "restaurant", "cuisine": null, "kelurahan": null, "kecamatan": "Cikarang Pusat", "jalan": null, "desa": "Pasirtanjung"}}, {"type": "Feature", "geometry": {"type": "Point", "coordinates": [107.1942231, -6.3508582]}, "properties": {"osm_type": "node", "osm_id": 11993338244, "name": "Pho Ba Ba", "amenity": "restaurant", "cuisine": null, "kelurahan": null, "kecamatan": "Cikarang Pusat", "jalan": null, "desa": "Pasirtanjung"}}, {"type": "Feature", "geometry": {"type": "Point", "coordinates": [107.1938717, -6.3507462]}, "properties": {"osm_type": "node", "osm_id": 11993340126, "name": "Gion The Sushi Bar", "amenity": "restaurant", "cuisine": null, "kelurahan": null, "kecamatan": "Cikarang Pusat", "jalan": null, "desa": "Pasirtanjung"}}, {"type": "Feature", "geometry": {"type": "Point", "coordinates": [107.1965459, -6.3522044]}, "properties": {"osm_type": "node", "osm_id": 11993340127, "name": "Izuka Gyoza", "amenity": "restaurant", "cuisine": null, "kelurahan": null, "kecamatan": "Cikarang Pusat", "jalan": null, "desa": "Pasirtanjung"}}, {"type": "Feature", "geometry": {"type": "Point", "coordinates": [107.1953416, -6.3508502]}, "properties": {"osm_type": "node", "osm_id": 11993346529, "name": "Han Guksu", "amenity": "restaurant", "cuisine": null, "kelurahan": null, "kecamatan": "Cikarang Pusat", "jalan": null, "desa": "Pasirtanjung"}}, {"type": "Feature", "geometry": {"type": "Point", "coordinates": [107.1941507, -6.3507116]}, "properties": {"osm_type": "node", "osm_id": 11993346530, "name": "Haraku Ramen", "amenity": "restaurant", "cuisine": null, "kelurahan": null, "kecamatan": "Cikarang Pusat", "jalan": null, "desa": "Pasirtanjung"}}, {"type": "Feature", "geometry": {"type": "Point", "coordinates": [107.1968222, -6.3520231]}, "properties": {"osm_type": "node", "osm_id": 11993347303, "name": "D'Crepes", "amenity": "fast_food", "cuisine": null, "kelurahan": null, "kecamatan": "Cikarang Pusat", "jalan": null, "desa": "Pasirtanjung"}}, {"type": "Feature", "geometry": {"type": "Point", "coordinates": [107.194899, -6.3513114]}, "properties": {"osm_type": "node", "osm_id": 11993347322, "name": "Gyukaku", "amenity": "restaurant", "cuisine": null, "kelurahan": null, "kecamatan": "Cikarang Pusat", "jalan": null, "desa": "Pasirtanjung"}}, {"type": "Feature", "geometry": {"type": "Point", "coordinates": [107.1940407, -6.3511354]}, "properties": {"osm_type": "node", "osm_id": 11993347795, "name": "Miss Thai Boat Noodle", "amenity": "restaurant", "cuisine": null, "kelurahan": null, "kecamatan": "Cikarang Pusat", "jalan": null, "desa": "Pasirtanjung"}}, {"type": "Feature", "geometry": {"type": "Point", "coordinates": [107.1968007, -6.3518925]}, "properties": {"osm_type": "node", "osm_id": 11993350140, "name": "Kyochon 1991", "amenity": "restaurant", "cuisine": null, "kelurahan": null, "kecamatan": "Cikarang Pusat", "jalan": null, "desa": "Pasirtanjung"}}, {"type": "Feature", "geometry": {"type": "Point", "coordinates": [107.196739, -6.3516073]}, "properties": {"osm_type": "node", "osm_id": 11993354401, "name": "Pancious", "amenity": "fast_food", "cuisine": null, "kelurahan": null, "kecamatan": "Cikarang Pusat", "jalan": null, "desa": "Pasirtanjung"}}, {"type": "Feature", "geometry": {"type": "Point", "coordinates": [107.1942982, -6.3509462]}, "properties": {"osm_type": "node", "osm_id": 11993355336, "name": "CFC", "amenity": "restaurant", "cuisine": "chicken", "kelurahan": null, "kecamatan": "Cikarang Pusat", "jalan": null, "desa": "Pasirtanjung"}}, {"type": "Feature", "geometry": {"type": "Point", "coordinates": [107.1964896, -6.3514047]}, "properties": {"osm_type": "node", "osm_id": 11993359320, "name": "Aunti Anne's", "amenity": "cafe", "cuisine": null, "kelurahan": null, "kecamatan": "Cikarang Pusat", "jalan": null, "desa": "Pasirtanjung"}}, {"type": "Feature", "geometry": {"type": "Point", "coordinates": [107.1963125, -6.3516686]}, "properties": {"osm_type": "node", "osm_id": 11993359943, "name": "Sushi King", "amenity": "restaurant", "cuisine": null, "kelurahan": null, "kecamatan": "Cikarang Pusat", "jalan": null, "desa": "Pasirtanjung"}}, {"type": "Feature", "geometry": {"type": "Point", "coordinates": [107.1955562, -6.3510421]}, "properties": {"osm_type": "node", "osm_id": 11993359962, "name": "Yoshinoya", "amenity": "fast_food", "cuisine": "beef_bowl", "kelurahan": null, "kecamatan": "Cikarang Pusat", "jalan": null, "desa": "Pasirtanjung"}}, {"type": "Feature", "geometry": {"type": "Point", "coordinates": [107.1940568, -6.3510021]}, "properties": {"osm_type": "node", "osm_id": 11993360443, "name": "Butter Toast", "amenity": "cafe", "cuisine": null, "kelurahan": null, "kecamatan": "Cikarang Pusat", "jalan": null, "desa": "Pasirtanjung"}}, {"type": "Feature", "geometry": {"type": "Point", "coordinates": [107.1958458, -6.3509302]}, "properties": {"osm_type": "node", "osm_id": 11993364368, "name": "Boost Juice", "amenity": "cafe", "cuisine": "juice", "kelurahan": null, "kecamatan": "Cikarang Pusat", "jalan": null, "desa": "Pasirtanjung"}}, {"type": "Feature", "geometry": {"type": "Point", "coordinates": [107.1967176, -6.351506]}, "properties": {"osm_type": "node", "osm_id": 11993364381, "name": "Sushi Go", "amenity": "restaurant", "cuisine": null, "kelurahan": null, "kecamatan": "Cikarang Pusat", "jalan": null, "desa": "Pasirtanjung"}}, {"type": "Feature", "geometry": {"type": "Point", "coordinates": [107.1952075, -6.3514526]}, "properties": {"osm_type": "node", "osm_id": 11993364674, "name": "A&W", "amenity": "restaurant", "cuisine": null, "kelurahan": null, "kecamatan": "Cikarang Pusat", "jalan": null, "desa": "Pasirtanjung"}}, {"type": "Feature", "geometry": {"type": "Point", "coordinates": [107.1970904, -6.3521511]}, "properties": {"osm_type": "node", "osm_id": 11993365337, "name": "Doner Kebab", "amenity": "fast_food", "cuisine": null, "kelurahan": null, "kecamatan": "Cikarang Pusat", "jalan": null, "desa": "Pasirtanjung"}}, {"type": "Feature", "geometry": {"type": "Point", "coordinates": [107.1954864, -6.3513487]}, "properties": {"osm_type": "node", "osm_id": 11993365438, "name": "Jolly Time Popcorn", "amenity": "fast_food", "cuisine": null, "kelurahan": null, "kecamatan": "Cikarang Pusat", "jalan": null, "desa": "Pasirtanjung"}}, {"type": "Feature", "geometry": {"type": "Point", "coordinates": [107.1953228, -6.3510261]}, "properties": {"osm_type": "node", "osm_id": 11993365440, "name": "Zenbu", "amenity": "restaurant", "cuisine": null, "kelurahan": null, "kecamatan": "Cikarang Pusat", "jalan": null, "desa": "Pasirtanjung"}}, {"type": "Feature", "geometry": {"type": "Point", "coordinates": [107.1954918, -6.3515939]}, "properties": {"osm_type": "node", "osm_id": 11993366748, "name": "Ta Wan", "amenity": "restaurant", "cuisine": null, "kelurahan": null, "kecamatan": "Cikarang Pusat", "jalan": null, "desa": "Pasirtanjung"}}, {"type": "Feature", "geometry": {"type": "Point", "coordinates": [107.1959692, -6.351314]}, "properties": {"osm_type": "node", "osm_id": 11993367387, "name": "Bageur Tengkleng & Siomay", "amenity": "restaurant", "cuisine": null, "kelurahan": null, "kecamatan": "Cikarang Pusat", "jalan": null, "desa": "Pasirtanjung"}}, {"type": "Feature", "geometry": {"type": "Point", "coordinates": [107.1951833, -6.3511194]}, "properties": {"osm_type": "node", "osm_id": 11993367388, "name": "Baso A Fung", "amenity": "restaurant", "cuisine": null, "kelurahan": null, "kecamatan": "Cikarang Pusat", "jalan": null, "desa": "Pasirtanjung"}}, {"type": "Feature", "geometry": {"type": "Point", "coordinates": [107.1954194, -6.3511541]}, "properties": {"osm_type": "node", "osm_id": 11993367617, "name": "Chadol Gujeolpan", "amenity": "restaurant", "cuisine": null, "kelurahan": null, "kecamatan": "Cikarang Pusat", "jalan": null, "desa": "Pasirtanjung"}}, {"type": "Feature", "geometry": {"type": "Point", "coordinates": [107.19381, -6.3510261]}, "properties": {"osm_type": "node", "osm_id": 11993371283, "name": "Soto Betawi by Warung Betawi", "amenity": "restaurant", "cuisine": null, "kelurahan": null, "kecamatan": "Cikarang Pusat", "jalan": null, "desa": "Pasirtanjung"}}, {"type": "Feature", "geometry": {"type": "Point", "coordinates": [107.1961758, -6.3515646]}, "properties": {"osm_type": "node", "osm_id": 11993371816, "name": "Hop Hop Signature", "amenity": "fast_food", "cuisine": null, "kelurahan": null, "kecamatan": "Cikarang Pusat", "jalan": null, "desa": "Pasirtanjung"}}, {"type": "Feature", "geometry": {"type": "Point", "coordinates": [107.1963984, -6.3512047]}, "properties": {"osm_type": "node", "osm_id": 11993371818, "name": "Kimukatsu", "amenity": "restaurant", "cuisine": null, "kelurahan": null, "kecamatan": "Cikarang Pusat", "jalan": null, "desa": "Pasirtanjung"}}, {"type": "Feature", "geometry": {"type": "Point", "coordinates": [107.19679, -6.3522444]}, "properties": {"osm_type": "node", "osm_id": 11993371820, "name": "Susu Mbok Darmi", "amenity": "cafe", "cuisine": null, "kelurahan": null, "kecamatan": "Cikarang Pusat", "jalan": null, "desa": "Pasirtanjung"}}, {"type": "Feature", "geometry": {"type": "Point", "coordinates": [107.1964332, -6.3516126]}, "properties": {"osm_type": "node", "osm_id": 11993372171, "name": "Dapur Solo", "amenity": "restaurant", "cuisine": null, "kelurahan": null, "kecamatan": "Cikarang Pusat", "jalan": null, "desa": "Pasirtanjung"}}, {"type": "Feature", "geometry": {"type": "Point", "coordinates": [107.1949795, -6.3508635]}, "properties": {"osm_type": "node", "osm_id": 11993372600, "name": "The Veranda Dine & Chill", "amenity": "restaurant", "cuisine": null, "kelurahan": null, "kecamatan": "Cikarang Pusat", "jalan": null, "desa": "Pasirtanjung"}}, {"type": "Feature", "geometry": {"type": "Point", "coordinates": [107.1946764, -6.3509888]}, "properties": {"osm_type": "node", "osm_id": 11993373165, "name": "Montato", "amenity": "fast_food", "cuisine": null, "kelurahan": null, "kecamatan": "Cikarang Pusat", "jalan": null, "desa": "Pasirtanjung"}}, {"type": "Feature", "geometry": {"type": "Point", "coordinates": [107.1957466, -6.35141]}, "properties": {"osm_type": "node", "osm_id": 11993373583, "name": "Penyetan Cok", "amenity": "restaurant", "cuisine": null, "kelurahan": null, "kecamatan": "Cikarang Pusat", "jalan": null, "desa": "Pasirtanjung"}}, {"type": "Feature", "geometry": {"type": "Point", "coordinates": [107.1961462, -6.3510261]}, "properties": {"osm_type": "node", "osm_id": 11993373584, "name": "Pepper Lunch", "amenity": "fast_food", "cuisine": "teppanyaki", "kelurahan": null, "kecamatan": "Cikarang Pusat", "jalan": null, "desa": "Pasirtanjung"}}, {"type": "Feature", "geometry": {"type": "Point", "coordinates": [107.1958378, -6.3510848]}, "properties": {"osm_type": "node", "osm_id": 11993373585, "name": "Ramen Beast", "amenity": "restaurant", "cuisine": null, "kelurahan": null, "kecamatan": "Cikarang Pusat", "jalan": null, "desa": "Pasirtanjung"}}, {"type": "Feature", "geometry": {"type": "Point", "coordinates": [107.1946415, -6.3511248]}, "properties": {"osm_type": "node", "osm_id": 11993373586, "name": "Seirock Ya Ramen", "amenity": "restaurant", "cuisine": null, "kelurahan": null, "kecamatan": "Cikarang Pusat", "jalan": null, "desa": "Pasirtanjung"}}, {"type": "Feature", "geometry": {"type": "Point", "coordinates": [107.1967256, -6.3517859]}, "properties": {"osm_type": "node", "osm_id": 11993373926, "name": "HokBen", "amenity": "fast_food", "cuisine": "japanese", "kelurahan": null, "kecamatan": "Cikarang Pusat", "jalan": null, "desa": "Pasirtanjung"}}, {"type": "Feature", "geometry": {"type": "Point", "coordinates": [107.1960255, -6.3516712]}, "properties": {"osm_type": "node", "osm_id": 11993376117, "name": "Steak 21", "amenity": "restaurant", "cuisine": null, "kelurahan": null, "kecamatan": "Cikarang Pusat", "jalan": null, "desa": "Pasirtanjung"}}, {"type": "Feature", "geometry": {"type": "Point", "coordinates": [107.1961838, -6.3511914]}, "properties": {"osm_type": "node", "osm_id": 11993376118, "name": "Wingstop", "amenity": "fast_food", "cuisine": "wings", "kelurahan": null, "kecamatan": "Cikarang Pusat", "jalan": null, "desa": "Pasirtanjung"}}, {"type": "Feature", "geometry": {"type": "Point", "coordinates": [107.1939898, -6.3508608]}, "properties": {"osm_type": "node", "osm_id": 11993377486, "name": "Sate Dombud", "amenity": "restaurant", "cuisine": null, "kelurahan": null, "kecamatan": "Cikarang Pusat", "jalan": null, "desa": "Pasirtanjung"}}, {"type": "Feature", "geometry": {"type": "Point", "coordinates": [107.1971655, -6.3520098]}, "properties": {"osm_type": "node", "osm_id": 11993377577, "name": "Dum Dum", "amenity": "cafe", "cuisine": null, "kelurahan": null, "kecamatan": "Cikarang Pusat", "jalan": null, "desa": "Pasirtanjung"}}, {"type": "Feature", "geometry": {"type": "Point", "coordinates": [107.1942151, -6.3510101]}, "properties": {"osm_type": "node", "osm_id": 11993377588, "name": "Yammie Hotplate", "amenity": "restaurant", "cuisine": null, "kelurahan": null, "kecamatan": "Cikarang Pusat", "jalan": null, "desa": "Pasirtanjung"}}, {"type": "Feature", "geometry": {"type": "Point", "coordinates": [107.1970046, -6.3518258]}, "properties": {"osm_type": "node", "osm_id": 11993378506, "name": "Taichan Gmoy", "amenity": "restaurant", "cuisine": null, "kelurahan": null, "kecamatan": "Cikarang Pusat", "jalan": null, "desa": "Pasirtanjung"}}, {"type": "Feature", "geometry": {"type": "Point", "coordinates": [107.1945074, -6.3508502]}, "properties": {"osm_type": "node", "osm_id": 11993378774, "name": "Mad Coco", "amenity": "cafe", "cuisine": null, "kelurahan": null, "kecamatan": "Cikarang Pusat", "jalan": null, "desa": "Pasirtanjung"}}, {"type": "Feature", "geometry": {"type": "Point", "coordinates": [107.1946952, -6.3508555]}, "properties": {"osm_type": "node", "osm_id": 11993379774, "name": "Golden Lamian", "amenity": "restaurant", "cuisine": null, "kelurahan": null, "kecamatan": "Cikarang Pusat", "jalan": null, "desa": "Pasirtanjung"}}, {"type": "Feature", "geometry": {"type": "Point", "coordinates": [107.1949258, -6.3511408]}, "properties": {"osm_type": "node", "osm_id": 11993380592, "name": "Maison Tatsuya", "amenity": "restaurant", "cuisine": null, "kelurahan": null, "kecamatan": "Cikarang Pusat", "jalan": null, "desa": "Pasirtanjung"}}, {"type": "Feature", "geometry": {"type": "Point", "coordinates": [107.1966317, -6.3520604]}, "properties": {"osm_type": "node", "osm_id": 11993381608, "name": "Noodle King", "amenity": "restaurant", "cuisine": null, "kelurahan": null, "kecamatan": "Cikarang Pusat", "jalan": null, "desa": "Pasirtanjung"}}, {"type": "Feature", "geometry": {"type": "Point", "coordinates": [107.196326, -6.3519085]}, "properties": {"osm_type": "node", "osm_id": 11993383709, "name": "Imperial Kitchen & Dimsum", "amenity": "restaurant", "cuisine": null, "kelurahan": null, "kecamatan": "Cikarang Pusat", "jalan": null, "desa": "Pasirtanjung"}}, {"type": "Feature", "geometry": {"type": "Point", "coordinates": [107.195929, -6.3514846]}, "properties": {"osm_type": "node", "osm_id": 11993385188, "name": "Nasgor Rendang One", "amenity": "restaurant", "cuisine": null, "kelurahan": null, "kecamatan": "Cikarang Pusat", "jalan": null, "desa": "Pasirtanjung"}}, {"type": "Feature", "geometry": {"type": "Point", "coordinates": [107.1972325, -6.3518525]}, "properties": {"osm_type": "node", "osm_id": 11993385620, "name": "Yakiniku Like", "amenity": "restaurant", "cuisine": null, "kelurahan": null, "kecamatan": "Cikarang Pusat", "jalan": null, "desa": "Pasirtanjung"}}, {"type": "Feature", "geometry": {"type": "Point", "coordinates": [107.1958941, -6.3515993]}, "properties": {"osm_type": "node", "osm_id": 11993385621, "name": "YaminQu", "amenity": "restaurant", "cuisine": null, "kelurahan": null, "kecamatan": "Cikarang Pusat", "jalan": null, "desa": "Pasirtanjung"}}, {"type": "Feature", "geometry": {"type": "Point", "coordinates": [107.1953684, -6.351466]}, "properties": {"osm_type": "node", "osm_id": 11993385871, "name": "Solaria", "amenity": "restaurant", "cuisine": "indonesian", "kelurahan": null, "kecamatan": "Cikarang Pusat", "jalan": null, "desa": "Pasirtanjung"}}, {"type": "Feature", "geometry": {"type": "Point", "coordinates": [107.1943894, -6.3511541]}, "properties": {"osm_type": "node", "osm_id": 11993386174, "name": "Marugame Udon", "amenity": "fast_food", "cuisine": "noodle", "kelurahan": null, "kecamatan": "Cikarang Pusat", "jalan": null, "desa": "Pasirtanjung"}}, {"type": "Feature", "geometry": {"type": "Point", "coordinates": [107.1974069, -6.3519751]}, "properties": {"osm_type": "node", "osm_id": 11993386175, "name": "Nomou Izakaya", "amenity": "restaurant", "cuisine": null, "kelurahan": null, "kecamatan": "Cikarang Pusat", "jalan": null, "desa": "Pasirtanjung"}}, {"type": "Feature", "geometry": {"type": "Point", "coordinates": [107.1966988, -6.3519112]}, "properties": {"osm_type": "node", "osm_id": 11993386675, "name": "Sushi Hiro", "amenity": "restaurant", "cuisine": null, "kelurahan": null, "kecamatan": "Cikarang Pusat", "jalan": null, "desa": "Pasirtanjung"}}, {"type": "Feature", "geometry": {"type": "Point", "coordinates": [107.194612, -6.3509248]}, "properties": {"osm_type": "node", "osm_id": 11993386770, "name": "Yen Saigon Group", "amenity": "restaurant", "cuisine": null, "kelurahan": null, "kecamatan": "Cikarang Pusat", "jalan": null, "desa": "Pasirtanjung"}}, {"type": "Feature", "geometry": {"type": "Point", "coordinates": [107.1958029, -6.3512527]}, "properties": {"osm_type": "node", "osm_id": 11993388572, "name": "Pusaka Rempah", "amenity": "restaurant", "cuisine": null, "kelurahan": null, "kecamatan": "Cikarang Pusat", "jalan": null, "desa": "Pasirtanjung"}}, {"type": "Feature", "geometry": {"type": "Point", "coordinates": [107.1956527, -6.3512554]}, "properties": {"osm_type": "node", "osm_id": 11993390114, "name": "Shabu Jin", "amenity": "restaurant", "cuisine": null, "kelurahan": null, "kecamatan": "Cikarang Pusat", "jalan": null, "desa": "Pasirtanjung"}}, {"type": "Feature", "geometry": {"type": "Point", "coordinates": [107.1961623, -6.3509302]}, "properties": {"osm_type": "node", "osm_id": 11993390949, "name": "Shake Shake in a Tub", "amenity": "cafe", "cuisine": null, "kelurahan": null, "kecamatan": "Cikarang Pusat", "jalan": null, "desa": "Pasirtanjung"}}, {"type": "Feature", "geometry": {"type": "Point", "coordinates": [107.19484, -6.3509621]}, "properties": {"osm_type": "node", "osm_id": 11993391180, "name": "Sinar Garut 27", "amenity": "restaurant", "cuisine": null, "kelurahan": null, "kecamatan": "Cikarang Pusat", "jalan": null, "desa": "Pasirtanjung"}}, {"type": "Feature", "geometry": {"type": "Point", "coordinates": [107.195406, -6.351306]}, "properties": {"osm_type": "node", "osm_id": 11993394409, "name": "Sour Sally", "amenity": "cafe", "cuisine": null, "kelurahan": null, "kecamatan": "Cikarang Pusat", "jalan": null, "desa": "Pasirtanjung"}}, {"type": "Feature", "geometry": {"type": "Point", "coordinates": [107.1961275, -6.351418]}, "properties": {"osm_type": "node", "osm_id": 11993395047, "name": "Waroeng Bakudapa Manado", "amenity": "restaurant", "cuisine": null, "kelurahan": null, "kecamatan": "Cikarang Pusat", "jalan": null, "desa": "Pasirtanjung"}}, {"type": "Feature", "geometry": {"type": "Point", "coordinates": [107.1962857, -6.351402]}, "properties": {"osm_type": "node", "osm_id": 11993395324, "name": "Susuru", "amenity": "cafe", "cuisine": null, "kelurahan": null, "kecamatan": "Cikarang Pusat", "jalan": null, "desa": "Pasirtanjung"}}, {"type": "Feature", "geometry": {"type": "Point", "coordinates": [107.1969214, -6.3515646]}, "properties": {"osm_type": "node", "osm_id": 11993395480, "name": "The People's Cafe", "amenity": "cafe", "cuisine": null, "kelurahan": null, "kecamatan": "Cikarang Pusat", "jalan": null, "desa": "Pasirtanjung"}}, {"type": "Feature", "geometry": {"type": "Point", "coordinates": [107.1343919, -6.2949289]}, "properties": {"osm_type": "node", "osm_id": 12065743669, "name": "Warung", "amenity": "restaurant", "cuisine": null, "kelurahan": null, "kecamatan": "Cikarang Selatan", "jalan": null, "desa": "Pasirsari"}}, {"type": "Feature", "geometry": {"type": "Point", "coordinates": [106.9979996, -6.1590219]}, "properties": {"osm_type": "node", "osm_id": 12307182381, "name": "Sudo Brew", "amenity": "cafe", "cuisine": null, "kelurahan": null, "kecamatan": "Babelan", "jalan": null, "desa": "Kebalen"}}, {"type": "Feature", "geometry": {"type": "Point", "coordinates": [107.0516932, -6.2061375]}, "properties": {"osm_type": "node", "osm_id": 12410542228, "name": "Arya.Center", "amenity": "restaurant", "cuisine": "korean;korean_cuisine_halal;mie_hotplate_gachoor_darmawangsa", "kelurahan": null, "kecamatan": "Tambun Utara", "jalan": "Jalan Singosari timur 8", "desa": "Srijaya"}}, {"type": "Feature", "geometry": {"type": "Point", "coordinates": [107.0337486, -6.2192183]}, "properties": {"osm_type": "node", "osm_id": 12695997988, "name": "AW Karang Satria", "amenity": "restaurant", "cuisine": null, "kelurahan": null, "kecamatan": "Tambun Utara", "jalan": null, "desa": "Karangsatria"}}, {"type": "Feature", "geometry": {"type": "Point", "coordinates": [107.0417114, -6.2239983]}, "properties": {"osm_type": "node", "osm_id": 12695999326, "name": "KFC", "amenity": "fast_food", "cuisine": "chicken", "kelurahan": null, "kecamatan": "Tambun Utara", "jalan": null, "desa": "Karangsatria"}}, {"type": "Feature", "geometry": {"type": "Point", "coordinates": [107.1533734, -6.3382231]}, "properties": {"osm_type": "node", "osm_id": 12734221407, "name": "Kopi Kenangan", "amenity": "cafe", "cuisine": "coffee_shop", "kelurahan": null, "kecamatan": "Cikarang Selatan", "jalan": null, "desa": "Cibatu"}}, {"type": "Feature", "geometry": {"type": "Point", "coordinates": [107.165253, -6.3459712]}, "properties": {"osm_type": "node", "osm_id": 12734221666, "name": "Ramen Ya!", "amenity": "restaurant", "cuisine": "ramen", "kelurahan": null, "kecamatan": "Cikarang Pusat", "jalan": null, "desa": "Jayamukti"}}, {"type": "Feature", "geometry": {"type": "Point", "coordinates": [107.1600755, -6.2431976]}, "properties": {"osm_type": "node", "osm_id": 12756751510, "name": null, "amenity": "cafe", "cuisine": null, "kelurahan": null, "kecamatan": "Karang Bahagia", "jalan": null, "desa": "Sukaraya"}}, {"type": "Feature", "geometry": {"type": "Point", "coordinates": [107.1600346, -6.2431947]}, "properties": {"osm_type": "node", "osm_id": 12757339474, "name": "Chiz n Co", "amenity": "restaurant", "cuisine": null, "kelurahan": null, "kecamatan": "Karang Bahagia", "jalan": null, "desa": "Sukaraya"}}, {"type": "Feature", "geometry": {"type": "Point", "coordinates": [106.9989336, -6.158197]}, "properties": {"osm_type": "node", "osm_id": 12762515104, "name": "Janji Jiwa", "amenity": "cafe", "cuisine": "coffee_shop", "kelurahan": null, "kecamatan": "Babelan", "jalan": null, "desa": "Kebalen"}}, {"type": "Feature", "geometry": {"type": "Point", "coordinates": [106.9979179, -6.1601108]}, "properties": {"osm_type": "node", "osm_id": 12762515136, "name": "Solaria", "amenity": "restaurant", "cuisine": "indonesian", "kelurahan": null, "kecamatan": "Babelan", "jalan": null, "desa": "Kebalen"}}, {"type": "Feature", "geometry": {"type": "Point", "coordinates": [106.9979314, -6.1599691]}, "properties": {"osm_type": "node", "osm_id": 12762515137, "name": "Sai Ramen", "amenity": "restaurant", "cuisine": "ramen", "kelurahan": null, "kecamatan": "Babelan", "jalan": null, "desa": "Kebalen"}}, {"type": "Feature", "geometry": {"type": "Point", "coordinates": [106.9979352, -6.1598101]}, "properties": {"osm_type": "node", "osm_id": 12762515138, "name": "Excelso", "amenity": "cafe", "cuisine": "coffee_shop", "kelurahan": null, "kecamatan": "Babelan", "jalan": null, "desa": "Kebalen"}}, {"type": "Feature", "geometry": {"type": "Point", "coordinates": [106.9979391, -6.1596779]}, "properties": {"osm_type": "node", "osm_id": 12762515139, "name": "SS Premium", "amenity": "restaurant", "cuisine": "steak_house", "kelurahan": null, "kecamatan": "Babelan", "jalan": null, "desa": "Kebalen"}}, {"type": "Feature", "geometry": {"type": "Point", "coordinates": [106.9979766, -6.1587007]}, "properties": {"osm_type": "node", "osm_id": 12762515141, "name": "Simetri", "amenity": "cafe", "cuisine": "coffee_shop", "kelurahan": null, "kecamatan": "Babelan", "jalan": null, "desa": "Kebalen"}}, {"type": "Feature", "geometry": {"type": "Point", "coordinates": [107.1271223, -6.3278456]}, "properties": {"osm_type": "node", "osm_id": 12808938505, "name": "Starbucks", "amenity": "cafe", "cuisine": "coffee_shop", "kelurahan": null, "kecamatan": "Cikarang Selatan", "jalan": null, "desa": "Sukaresmi"}}, {"type": "Feature", "geometry": {"type": "Point", "coordinates": [107.1280986, -6.3285347]}, "properties": {"osm_type": "node", "osm_id": 12808938506, "name": "Domino's", "amenity": "fast_food", "cuisine": "pizza", "kelurahan": null, "kecamatan": "Cikarang Selatan", "jalan": null, "desa": "Sukaresmi"}}, {"type": "Feature", "geometry": {"type": "Point", "coordinates": [107.1391493, -6.3313819]}, "properties": {"osm_type": "node", "osm_id": 12808938572, "name": "Bebek Bali", "amenity": "restaurant", "cuisine": "indonesian", "kelurahan": null, "kecamatan": "Cikarang Selatan", "jalan": null, "desa": "Sukaresmi"}}, {"type": "Feature", "geometry": {"type": "Point", "coordinates": [107.139219, -6.3316564]}, "properties": {"osm_type": "node", "osm_id": 12808938573, "name": "Bali Terrace", "amenity": "restaurant", "cuisine": "indonesian", "kelurahan": null, "kecamatan": "Cikarang Selatan", "jalan": null, "desa": "Sukaresmi"}}, {"type": "Feature", "geometry": {"type": "Point", "coordinates": [107.1461056, -6.3310779]}, "properties": {"osm_type": "node", "osm_id": 12808938607, "name": "Fuji Sushi", "amenity": "restaurant", "cuisine": "sushi", "kelurahan": null, "kecamatan": "Cikarang Selatan", "jalan": null, "desa": "Sukaresmi"}}, {"type": "Feature", "geometry": {"type": "Point", "coordinates": [107.1463296, -6.3310326]}, "properties": {"osm_type": "node", "osm_id": 12808938608, "name": "Gahyo", "amenity": "restaurant", "cuisine": "korean", "kelurahan": null, "kecamatan": "Cikarang Selatan", "jalan": null, "desa": "Cibatu"}}, {"type": "Feature", "geometry": {"type": "Point", "coordinates": [107.1397434, -6.3319137]}, "properties": {"osm_type": "node", "osm_id": 12808938657, "name": "Fishman", "amenity": "restaurant", "cuisine": "japanese", "kelurahan": null, "kecamatan": "Cikarang Selatan", "jalan": null, "desa": "Sukaresmi"}}, {"type": "Feature", "geometry": {"type": "Point", "coordinates": [107.1398185, -6.3317657]}, "properties": {"osm_type": "node", "osm_id": 12808938659, "name": "Canton", "amenity": "restaurant", "cuisine": "chinese", "kelurahan": null, "kecamatan": "Cikarang Selatan", "jalan": null, "desa": "Sukaresmi"}}, {"type": "Feature", "geometry": {"type": "Point", "coordinates": [107.1397729, -6.3321603]}, "properties": {"osm_type": "node", "osm_id": 12808938660, "name": "Old Town White Coffee", "amenity": "cafe", "cuisine": null, "kelurahan": null, "kecamatan": "Cikarang Selatan", "jalan": null, "desa": "Sukaresmi"}}, {"type": "Feature", "geometry": {"type": "Point", "coordinates": [107.0170655, -6.2678293]}, "properties": {"osm_type": "node", "osm_id": 13308041288, "name": "Mixue", "amenity": "cafe", "cuisine": "ice_cream;bubble_tea", "kelurahan": null, "kecamatan": "Tambun Selatan", "jalan": null, "desa": "Lambangsari"}}, {"type": "Feature", "geometry": {"type": "Point", "coordinates": [107.0205741, -6.2680306]}, "properties": {"osm_type": "node", "osm_id": 13321575742, "name": "Mie Ayam Jawir", "amenity": "restaurant", "cuisine": null, "kelurahan": null, "kecamatan": "Tambun Selatan", "jalan": null, "desa": "Lambangsari"}}, {"type": "Feature", "geometry": {"type": "Point", "coordinates": [107.1035006, -6.2178849]}, "properties": {"osm_type": "node", "osm_id": 13457043864, "name": "Graha Kocheng Aer", "amenity": "cafe", "cuisine": "coffee_shop;asian", "kelurahan": null, "kecamatan": null, "jalan": "Jl. Blok R3-R4", "desa": "Kertamukti"}}, {"type": "Feature", "geometry": {"type": "Point", "coordinates": [107.0207784, -6.2681383]}, "properties": {"osm_type": "node", "osm_id": 13529334491, "name": "RM Tanamo", "amenity": "restaurant", "cuisine": null, "kelurahan": null, "kecamatan": "Tambun Selatan", "jalan": null, "desa": "Lambangsari"}}, {"type": "Feature", "geometry": {"type": "Point", "coordinates": [107.0731489, -6.2657678]}, "properties": {"osm_type": "node", "osm_id": 13728707245, "name": "Kebab Baba Rafi", "amenity": "fast_food", "cuisine": "kebab", "kelurahan": null, "kecamatan": "Tambun Selatan", "jalan": null, "desa": "Mekarsari"}}, {"type": "Feature", "geometry": {"type": "Point", "coordinates": [106.9783683, -6.1680908]}, "properties": {"osm_type": "node", "osm_id": 13950312101, "name": "Mie Gacoan", "amenity": "restaurant", "cuisine": null, "kelurahan": null, "kecamatan": null, "jalan": null, "desa": "Pusakarakyat"}}, {"type": "Feature", "geometry": {"type": "Point", "coordinates": [106.978635, -6.1681005]}, "properties": {"osm_type": "node", "osm_id": 13950312201, "name": "Se'i Indonesia", "amenity": "restaurant", "cuisine": null, "kelurahan": null, "kecamatan": null, "jalan": null, "desa": "Pusakarakyat"}}, {"type": "Feature", "geometry": {"type": "Point", "coordinates": [106.9751156, -6.168577]}, "properties": {"osm_type": "node", "osm_id": 13953813301, "name": "Wing Lok", "amenity": "restaurant", "cuisine": null, "kelurahan": null, "kecamatan": null, "jalan": null, "desa": "Pusakarakyat"}}, {"type": "Feature", "geometry": {"type": "Point", "coordinates": [106.9741523, -6.1708961]}, "properties": {"osm_type": "node", "osm_id": 13955438603, "name": "Kampung Kecil", "amenity": "restaurant", "cuisine": null, "kelurahan": null, "kecamatan": null, "jalan": null, "desa": "Pusakarakyat"}}, {"type": "Feature", "geometry": {"type": "Point", "coordinates": [106.9742734, -6.1667315]}, "properties": {"osm_type": "node", "osm_id": 13955438604, "name": "Dapur Soto", "amenity": "restaurant", "cuisine": null, "kelurahan": null, "kecamatan": null, "jalan": null, "desa": "Pusakarakyat"}}, {"type": "Feature", "geometry": {"type": "Point", "coordinates": [106.9741291, -6.1720388]}, "properties": {"osm_type": "node", "osm_id": 13955439803, "name": "Hotway's Nashville Hot Chicken", "amenity": "fast_food", "cuisine": null, "kelurahan": null, "kecamatan": null, "jalan": null, "desa": "Pusakarakyat"}}, {"type": "Feature", "geometry": {"type": "Point", "coordinates": [106.9742773, -6.1666373]}, "properties": {"osm_type": "node", "osm_id": 13955439804, "name": "Ayam Guling Enako", "amenity": "restaurant", "cuisine": null, "kelurahan": null, "kecamatan": null, "jalan": null, "desa": "Pusakarakyat"}}, {"type": "Feature", "geometry": {"type": "Point", "coordinates": [106.9751078, -6.1663038]}, "properties": {"osm_type": "node", "osm_id": 13955440403, "name": "Rosemary Coffee & Eatery", "amenity": "cafe", "cuisine": null, "kelurahan": null, "kecamatan": null, "jalan": null, "desa": "Pusakarakyat"}}, {"type": "Feature", "geometry": {"type": "Point", "coordinates": [106.984581, -6.1524256]}, "properties": {"osm_type": "node", "osm_id": 13961785601, "name": "A&W", "amenity": "fast_food", "cuisine": null, "kelurahan": null, "kecamatan": null, "jalan": null, "desa": "Pusakarakyat"}}, {"type": "Feature", "geometry": {"type": "Point", "coordinates": [106.9842804, -6.1525929]}, "properties": {"osm_type": "node", "osm_id": 13961785701, "name": "Kopi Kenangan", "amenity": "cafe", "cuisine": null, "kelurahan": null, "kecamatan": null, "jalan": null, "desa": "Pusakarakyat"}}, {"type": "Feature", "geometry": {"type": "Point", "coordinates": [107.0239407, -6.1612277]}, "properties": {"osm_type": "node", "osm_id": 14048181602, "name": "Rumah Makan Sayur Gabus Pucung Baba H. Nijar", "amenity": "restaurant", "cuisine": null, "kelurahan": null, "kecamatan": "Babelan", "jalan": null, "desa": "Babelan Kota"}}, {"type": "Feature", "geometry": {"type": "Point", "coordinates": [107.0450924, -6.2752097]}, "properties": {"osm_type": "way", "osm_id": 338498939, "name": "McDonald's", "amenity": "fast_food", "cuisine": "burger", "kelurahan": null, "kecamatan": "Tambun Selatan", "jalan": null, "desa": "Lambangsari"}}, {"type": "Feature", "geometry": {"type": "Point", "coordinates": [107.1528094, -6.3220529]}, "properties": {"osm_type": "way", "osm_id": 400315621, "name": null, "amenity": "restaurant", "cuisine": null, "kelurahan": null, "kecamatan": "Cikarang Selatan", "jalan": null, "desa": "Cibatu"}}, {"type": "Feature", "geometry": {"type": "Point", "coordinates": [107.1152965, -6.3277847]}, "properties": {"osm_type": "way", "osm_id": 499045074, "name": "IEI Rest Room", "amenity": "cafe", "cuisine": null, "kelurahan": null, "kecamatan": "Cikarang Barat", "jalan": null, "desa": "Jatiwangi"}}, {"type": "Feature", "geometry": {"type": "Point", "coordinates": [107.1159734, -6.3342419]}, "properties": {"osm_type": "way", "osm_id": 499045732, "name": "Toko berkah snack", "amenity": "food_court", "cuisine": null, "kelurahan": null, "kecamatan": "Cikarang Selatan", "jalan": null, "desa": "Ciantra"}}, {"type": "Feature", "geometry": {"type": "Point", "coordinates": [107.0086269, -6.1615058]}, "properties": {"osm_type": "way", "osm_id": 499623500, "name": "Kampoeng Rempah", "amenity": "restaurant", "cuisine": "indonesian", "kelurahan": null, "kecamatan": "Babelan", "jalan": null, "desa": "Kebalen"}}, {"type": "Feature", "geometry": {"type": "Point", "coordinates": [107.144919, -6.3312274]}, "properties": {"osm_type": "way", "osm_id": 500184664, "name": "Bakmi Golek", "amenity": "restaurant", "cuisine": "noodle", "kelurahan": null, "kecamatan": "Cikarang Selatan", "jalan": null, "desa": "Sukaresmi"}}, {"type": "Feature", "geometry": {"type": "Point", "coordinates": [107.1179223, -6.364543]}, "properties": {"osm_type": "way", "osm_id": 502292757, "name": "Warkop Bu Kete", "amenity": "cafe", "cuisine": "indonesian", "kelurahan": null, "kecamatan": "Cikarang Selatan", "jalan": "gang samean", "desa": "Sukadami"}}, {"type": "Feature", "geometry": {"type": "Point", "coordinates": [107.0666459, -6.2719273]}, "properties": {"osm_type": "way", "osm_id": 502607920, "name": null, "amenity": "food_court", "cuisine": null, "kelurahan": null, "kecamatan": null, "jalan": null, "desa": "Pekopen"}}, {"type": "Feature", "geometry": {"type": "Point", "coordinates": [107.1098279, -6.245227]}, "properties": {"osm_type": "way", "osm_id": 504321560, "name": "Yokobana Fried Chicken", "amenity": "fast_food", "cuisine": null, "kelurahan": null, "kecamatan": "Cibitung", "jalan": null, "desa": "Wanajaya"}}, {"type": "Feature", "geometry": {"type": "Point", "coordinates": [107.1096222, -6.2451591]}, "properties": {"osm_type": "way", "osm_id": 504321564, "name": "Gallery 31 (MJ SPORT/ B'DISTRO/GF3)", "amenity": "cafe", "cuisine": null, "kelurahan": null, "kecamatan": "Cibitung", "jalan": null, "desa": "Wanajaya"}}, {"type": "Feature", "geometry": {"type": "Point", "coordinates": [107.1160459, -6.2445296]}, "properties": {"osm_type": "way", "osm_id": 504321854, "name": "Warung Nasi Ibu Yati", "amenity": "restaurant", "cuisine": null, "kelurahan": null, "kecamatan": null, "jalan": null, "desa": "Telagamurni"}}, {"type": "Feature", "geometry": {"type": "Point", "coordinates": [107.1088692, -6.24406]}, "properties": {"osm_type": "way", "osm_id": 504468681, "name": "Mako Kiraja", "amenity": "cafe", "cuisine": null, "kelurahan": null, "kecamatan": "Cibitung", "jalan": null, "desa": "Wanajaya"}}, {"type": "Feature", "geometry": {"type": "Point", "coordinates": [107.1536332, -6.3456657]}, "properties": {"osm_type": "way", "osm_id": 640229694, "name": null, "amenity": "restaurant", "cuisine": null, "kelurahan": null, "kecamatan": "Cikarang Selatan", "jalan": null, "desa": "Cibatu"}}, {"type": "Feature", "geometry": {"type": "Point", "coordinates": [107.0366748, -6.2141912]}, "properties": {"osm_type": "way", "osm_id": 640736849, "name": "Cafe Coffee Day", "amenity": "cafe", "cuisine": "coffee_shop", "kelurahan": null, "kecamatan": "Tambun Utara", "jalan": null, "desa": "Karangsatria"}}, {"type": "Feature", "geometry": {"type": "Point", "coordinates": [107.1457318, -6.3311298]}, "properties": {"osm_type": "way", "osm_id": 645099395, "name": "Myeong-ga Myeon-ok", "amenity": "restaurant", "cuisine": "korean", "kelurahan": null, "kecamatan": "Cikarang Selatan", "jalan": null, "desa": "Sukaresmi"}}, {"type": "Feature", "geometry": {"type": "Point", "coordinates": [107.0054072, -6.1682508]}, "properties": {"osm_type": "way", "osm_id": 647231186, "name": "Warung Om Apis", "amenity": "restaurant", "cuisine": "breakfast;noodle;chicken;fish_and_chips;tea", "kelurahan": null, "kecamatan": "Babelan", "jalan": null, "desa": "Kebalen"}}, {"type": "Feature", "geometry": {"type": "Point", "coordinates": [106.9978947, -6.1583277]}, "properties": {"osm_type": "way", "osm_id": 691860482, "name": "Cibiuk Resto", "amenity": "restaurant", "cuisine": "indonesian", "kelurahan": null, "kecamatan": "Babelan", "jalan": null, "desa": "Kebalen"}}, {"type": "Feature", "geometry": {"type": "Point", "coordinates": [106.9743352, -6.1606462]}, "properties": {"osm_type": "way", "osm_id": 755211262, "name": "Ikan Bakar Cianjur", "amenity": "restaurant", "cuisine": "regional", "kelurahan": null, "kecamatan": null, "jalan": null, "desa": "Pusakarakyat"}}, {"type": "Feature", "geometry": {"type": "Point", "coordinates": [107.1788552, -6.3653559]}, "properties": {"osm_type": "way", "osm_id": 1006815844, "name": "McDonald's", "amenity": "restaurant", "cuisine": "burger", "kelurahan": null, "kecamatan": "Cikarang Pusat", "jalan": null, "desa": "Sukamahi"}}, {"type": "Feature", "geometry": {"type": "Point", "coordinates": [107.1519441, -6.300636]}, "properties": {"osm_type": "way", "osm_id": 1006868903, "name": "McDonald's", "amenity": "fast_food", "cuisine": "burger", "kelurahan": null, "kecamatan": "Cikarang Selatan", "jalan": null, "desa": "Pasirsari"}}, {"type": "Feature", "geometry": {"type": "Point", "coordinates": [107.1665469, -6.2569365]}, "properties": {"osm_type": "way", "osm_id": 1006935401, "name": "McDonald's", "amenity": "fast_food", "cuisine": "burger", "kelurahan": null, "kecamatan": "Cikarang Utara", "jalan": null, "desa": "Tanjungsari"}}, {"type": "Feature", "geometry": {"type": "Point", "coordinates": [107.0446381, -6.2765015]}, "properties": {"osm_type": "way", "osm_id": 1049847331, "name": "Burger King", "amenity": "fast_food", "cuisine": "burger", "kelurahan": null, "kecamatan": "Tambun Selatan", "jalan": null, "desa": "Lambangsari"}}, {"type": "Feature", "geometry": {"type": "Point", "coordinates": [107.1397428, -6.3169736]}, "properties": {"osm_type": "way", "osm_id": 1049847649, "name": "Warung Nasi Goreng Opang - Pasirsari", "amenity": "restaurant", "cuisine": null, "kelurahan": null, "kecamatan": "Cikarang Selatan", "jalan": null, "desa": "Sukaresmi"}}, {"type": "Feature", "geometry": {"type": "Point", "coordinates": [107.1268419, -6.3272707]}, "properties": {"osm_type": "way", "osm_id": 1049854852, "name": "McDonald's", "amenity": "fast_food", "cuisine": "burger", "kelurahan": null, "kecamatan": "Cikarang Selatan", "jalan": null, "desa": "Sukaresmi"}}, {"type": "Feature", "geometry": {"type": "Point", "coordinates": [107.0463677, -6.2791735]}, "properties": {"osm_type": "way", "osm_id": 1049864585, "name": "Mr. Jack", "amenity": "cafe", "cuisine": null, "kelurahan": null, "kecamatan": "Tambun Selatan", "jalan": null, "desa": "Lambangjaya"}}, {"type": "Feature", "geometry": {"type": "Point", "coordinates": [107.0479812, -6.2790461]}, "properties": {"osm_type": "way", "osm_id": 1049864586, "name": "Starbucks", "amenity": "cafe", "cuisine": "coffee_shop", "kelurahan": null, "kecamatan": "Tambun Selatan", "jalan": null, "desa": "Lambangjaya"}}, {"type": "Feature", "geometry": {"type": "Point", "coordinates": [107.1242499, -6.3250576]}, "properties": {"osm_type": "way", "osm_id": 1061093653, "name": "Hoka Hoka Bento", "amenity": "restaurant", "cuisine": null, "kelurahan": null, "kecamatan": "Cikarang Selatan", "jalan": null, "desa": "Sukaresmi"}}, {"type": "Feature", "geometry": {"type": "Point", "coordinates": [107.1655295, -6.3458157]}, "properties": {"osm_type": "way", "osm_id": 1074062493, "name": "Starbucks", "amenity": "cafe", "cuisine": "coffee_shop", "kelurahan": null, "kecamatan": "Cikarang Pusat", "jalan": null, "desa": "Jayamukti"}}, {"type": "Feature", "geometry": {"type": "Point", "coordinates": [107.0839092, -6.2900461]}, "properties": {"osm_type": "way", "osm_id": 1198073137, "name": "KFC", "amenity": "fast_food", "cuisine": "chicken", "kelurahan": null, "kecamatan": null, "jalan": null, "desa": "Mariuk"}}, {"type": "Feature", "geometry": {"type": "Point", "coordinates": [107.1784088, -6.367145]}, "properties": {"osm_type": "way", "osm_id": 1215368268, "name": "Starbucks", "amenity": "cafe", "cuisine": null, "kelurahan": null, "kecamatan": "Cikarang Pusat", "jalan": null, "desa": "Sukamahi"}}, {"type": "Feature", "geometry": {"type": "Point", "coordinates": [107.1785984, -6.3664924]}, "properties": {"osm_type": "way", "osm_id": 1215368269, "name": "Richeese Factory", "amenity": "fast_food", "cuisine": "chicken", "kelurahan": null, "kecamatan": "Cikarang Pusat", "jalan": null, "desa": "Sukamahi"}}, {"type": "Feature", "geometry": {"type": "Point", "coordinates": [106.9732511, -6.1578817]}, "properties": {"osm_type": "way", "osm_id": 1243682060, "name": null, "amenity": "restaurant", "cuisine": null, "kelurahan": null, "kecamatan": null, "jalan": null, "desa": "Pusakarakyat"}}, {"type": "Feature", "geometry": {"type": "Point", "coordinates": [107.035505, -6.2137793]}, "properties": {"osm_type": "way", "osm_id": 1323053059, "name": null, "amenity": "restaurant", "cuisine": null, "kelurahan": null, "kecamatan": "Tambun Utara", "jalan": null, "desa": "Karangsatria"}}, {"type": "Feature", "geometry": {"type": "Point", "coordinates": [107.0351979, -6.2150431]}, "properties": {"osm_type": "way", "osm_id": 1341143733, "name": "Burger King", "amenity": "fast_food", "cuisine": "burger", "kelurahan": null, "kecamatan": "Tambun Utara", "jalan": null, "desa": "Karangsatria"}}, {"type": "Feature", "geometry": {"type": "Point", "coordinates": [107.0333323, -6.2159764]}, "properties": {"osm_type": "way", "osm_id": 1341144771, "name": "Pizza Hut", "amenity": "fast_food", "cuisine": null, "kelurahan": null, "kecamatan": "Tambun Utara", "jalan": null, "desa": "Karangsatria"}}, {"type": "Feature", "geometry": {"type": "Point", "coordinates": [107.0334055, -6.2154978]}, "properties": {"osm_type": "way", "osm_id": 1341144772, "name": "Hoka-Hoka Bento", "amenity": "fast_food", "cuisine": null, "kelurahan": null, "kecamatan": "Tambun Utara", "jalan": null, "desa": "Karangsatria"}}, {"type": "Feature", "geometry": {"type": "Point", "coordinates": [107.0349523, -6.2139578]}, "properties": {"osm_type": "way", "osm_id": 1341144976, "name": "Kopi Kenangan", "amenity": "cafe", "cuisine": "coffee_shop", "kelurahan": null, "kecamatan": "Tambun Utara", "jalan": null, "desa": "Karangsatria"}}, {"type": "Feature", "geometry": {"type": "Point", "coordinates": [107.0333893, -6.2155533]}, "properties": {"osm_type": "way", "osm_id": 1341144977, "name": "Dominos Pizza", "amenity": "fast_food", "cuisine": null, "kelurahan": null, "kecamatan": "Tambun Utara", "jalan": null, "desa": "Karangsatria"}}, {"type": "Feature", "geometry": {"type": "Point", "coordinates": [107.0334259, -6.2154096]}, "properties": {"osm_type": "way", "osm_id": 1341144978, "name": "Coffee Time", "amenity": "cafe", "cuisine": "coffee_shop", "kelurahan": null, "kecamatan": "Tambun Utara", "jalan": null, "desa": "Karangsatria"}}, {"type": "Feature", "geometry": {"type": "Point", "coordinates": [107.0334447, -6.2153473]}, "properties": {"osm_type": "way", "osm_id": 1341144979, "name": "Bebek Bensu", "amenity": "restaurant", "cuisine": null, "kelurahan": null, "kecamatan": "Tambun Utara", "jalan": null, "desa": "Karangsatria"}}, {"type": "Feature", "geometry": {"type": "Point", "coordinates": [107.0448572, -6.2766573]}, "properties": {"osm_type": "way", "osm_id": 1375052720, "name": "Solaria", "amenity": "restaurant", "cuisine": "indonesian", "kelurahan": null, "kecamatan": "Tambun Selatan", "jalan": null, "desa": "Lambangsari"}}, {"type": "Feature", "geometry": {"type": "Point", "coordinates": [107.0447915, -6.2762089]}, "properties": {"osm_type": "way", "osm_id": 1375052722, "name": "KFC", "amenity": "fast_food", "cuisine": "chicken", "kelurahan": null, "kecamatan": "Tambun Selatan", "jalan": null, "desa": "Lambangsari"}}, {"type": "Feature", "geometry": {"type": "Point", "coordinates": [107.0449631, -6.275537]}, "properties": {"osm_type": "way", "osm_id": 1375052724, "name": "HokBen", "amenity": "fast_food", "cuisine": "japanese", "kelurahan": null, "kecamatan": "Tambun Selatan", "jalan": null, "desa": "Lambangsari"}}, {"type": "Feature", "geometry": {"type": "Point", "coordinates": [107.046372, -6.2776503]}, "properties": {"osm_type": "way", "osm_id": 1375052742, "name": "Popeyes", "amenity": "fast_food", "cuisine": "chicken", "kelurahan": null, "kecamatan": "Tambun Selatan", "jalan": null, "desa": "Lambangjaya"}}, {"type": "Feature", "geometry": {"type": "Point", "coordinates": [107.0469098, -6.2780829]}, "properties": {"osm_type": "way", "osm_id": 1375052748, "name": "Pizza Hut", "amenity": "restaurant", "cuisine": "pizza", "kelurahan": null, "kecamatan": "Tambun Selatan", "jalan": null, "desa": "Lambangjaya"}}, {"type": "Feature", "geometry": {"type": "Point", "coordinates": [107.0468093, -6.2782755]}, "properties": {"osm_type": "way", "osm_id": 1375052750, "name": "Warung Leko", "amenity": "restaurant", "cuisine": "indonesian", "kelurahan": null, "kecamatan": "Tambun Selatan", "jalan": null, "desa": "Lambangjaya"}}, {"type": "Feature", "geometry": {"type": "Point", "coordinates": [107.0472928, -6.2784327]}, "properties": {"osm_type": "way", "osm_id": 1375052751, "name": "Abuba Steak", "amenity": "restaurant", "cuisine": "steak_house", "kelurahan": null, "kecamatan": "Tambun Selatan", "jalan": null, "desa": "Lambangjaya"}}, {"type": "Feature", "geometry": {"type": "Point", "coordinates": [107.0474069, -6.278506]}, "properties": {"osm_type": "way", "osm_id": 1375052752, "name": "Pampalassa", "amenity": "restaurant", "cuisine": "indonesian", "kelurahan": null, "kecamatan": "Tambun Selatan", "jalan": null, "desa": "Lambangjaya"}}, {"type": "Feature", "geometry": {"type": "Point", "coordinates": [107.0464508, -6.2789314]}, "properties": {"osm_type": "way", "osm_id": 1375052754, "name": "SHSD", "amenity": "restaurant", "cuisine": "indonesian;sundanese", "kelurahan": null, "kecamatan": "Tambun Selatan", "jalan": null, "desa": "Lambangjaya"}}, {"type": "Feature", "geometry": {"type": "Point", "coordinates": [107.0465894, -6.2787018]}, "properties": {"osm_type": "way", "osm_id": 1375052755, "name": "Bebek Kaleyo", "amenity": "restaurant", "cuisine": "indonesian", "kelurahan": null, "kecamatan": "Tambun Selatan", "jalan": null, "desa": "Lambangjaya"}}, {"type": "Feature", "geometry": {"type": "Point", "coordinates": [107.0465386, -6.2793462]}, "properties": {"osm_type": "way", "osm_id": 1375052756, "name": "Bali Deso", "amenity": "restaurant", "cuisine": "indonesian;balinese", "kelurahan": null, "kecamatan": "Tambun Selatan", "jalan": null, "desa": "Lambangjaya"}}, {"type": "Feature", "geometry": {"type": "Point", "coordinates": [107.046016, -6.2798256]}, "properties": {"osm_type": "way", "osm_id": 1375052771, "name": "Gelar Waroeng", "amenity": "food_court", "cuisine": null, "kelurahan": null, "kecamatan": "Tambun Selatan", "jalan": null, "desa": "Lambangjaya"}}, {"type": "Feature", "geometry": {"type": "Point", "coordinates": [107.1538872, -6.3406553]}, "properties": {"osm_type": "way", "osm_id": 1375332179, "name": "Miray Cafe", "amenity": "cafe", "cuisine": null, "kelurahan": null, "kecamatan": "Cikarang Selatan", "jalan": null, "desa": "Cibatu"}}, {"type": "Feature", "geometry": {"type": "Point", "coordinates": [107.1532999, -6.3376592]}, "properties": {"osm_type": "way", "osm_id": 1375332189, "name": "Es Kopi Boss", "amenity": "cafe", "cuisine": "coffee_shop", "kelurahan": null, "kecamatan": "Cikarang Selatan", "jalan": null, "desa": "Cibatu"}}, {"type": "Feature", "geometry": {"type": "Point", "coordinates": [107.1540682, -6.3434372]}, "properties": {"osm_type": "way", "osm_id": 1375332207, "name": "Abuba Steak", "amenity": "restaurant", "cuisine": "steak_house", "kelurahan": null, "kecamatan": "Cikarang Selatan", "jalan": null, "desa": "Cibatu"}}, {"type": "Feature", "geometry": {"type": "Point", "coordinates": [107.1536509, -6.3431699]}, "properties": {"osm_type": "way", "osm_id": 1375332208, "name": "Bebek Kaleyo", "amenity": "restaurant", "cuisine": "indonesian", "kelurahan": null, "kecamatan": "Cikarang Selatan", "jalan": null, "desa": "Cibatu"}}, {"type": "Feature", "geometry": {"type": "Point", "coordinates": [107.1535303, -6.3430385]}, "properties": {"osm_type": "way", "osm_id": 1375332209, "name": "King's Coffee", "amenity": "cafe", "cuisine": null, "kelurahan": null, "kecamatan": "Cikarang Selatan", "jalan": null, "desa": "Cibatu"}}, {"type": "Feature", "geometry": {"type": "Point", "coordinates": [107.0091772, -6.1594107]}, "properties": {"osm_type": "way", "osm_id": 1378352213, "name": "McDonald's", "amenity": "fast_food", "cuisine": "burger", "kelurahan": null, "kecamatan": "Babelan", "jalan": null, "desa": "Kebalen"}}, {"type": "Feature", "geometry": {"type": "Point", "coordinates": [107.1266187, -6.3271286]}, "properties": {"osm_type": "way", "osm_id": 1383478622, "name": "Richeese Factory", "amenity": "fast_food", "cuisine": "chicken", "kelurahan": null, "kecamatan": "Cikarang Selatan", "jalan": null, "desa": "Sukaresmi"}}, {"type": "Feature", "geometry": {"type": "Point", "coordinates": [107.1287794, -6.3285848]}, "properties": {"osm_type": "way", "osm_id": 1383478628, "name": "KFC", "amenity": "fast_food", "cuisine": "chicken", "kelurahan": null, "kecamatan": "Cikarang Selatan", "jalan": null, "desa": "Sukaresmi"}}, {"type": "Feature", "geometry": {"type": "Point", "coordinates": [107.1293358, -6.3289892]}, "properties": {"osm_type": "way", "osm_id": 1383478629, "name": "Burger King", "amenity": "fast_food", "cuisine": "burger", "kelurahan": null, "kecamatan": "Cikarang Selatan", "jalan": null, "desa": "Sukaresmi"}}, {"type": "Feature", "geometry": {"type": "Point", "coordinates": [107.1301739, -6.329735]}, "properties": {"osm_type": "way", "osm_id": 1383478630, "name": "Mie Gacoan", "amenity": "restaurant", "cuisine": "noodle", "kelurahan": null, "kecamatan": "Cikarang Selatan", "jalan": null, "desa": "Sukaresmi"}}, {"type": "Feature", "geometry": {"type": "Point", "coordinates": [107.1297722, -6.3293833]}, "properties": {"osm_type": "way", "osm_id": 1383478634, "name": "Solaria", "amenity": "restaurant", "cuisine": "indonesian", "kelurahan": null, "kecamatan": "Cikarang Selatan", "jalan": null, "desa": "Sukaresmi"}}, {"type": "Feature", "geometry": {"type": "Point", "coordinates": [107.1401297, -6.3330407]}, "properties": {"osm_type": "way", "osm_id": 1383478647, "name": "Sushi Yay!", "amenity": "restaurant", "cuisine": "sushi", "kelurahan": null, "kecamatan": "Cikarang Selatan", "jalan": null, "desa": "Sukaresmi"}}, {"type": "Feature", "geometry": {"type": "Point", "coordinates": [107.1393961, -6.3331147]}, "properties": {"osm_type": "way", "osm_id": 1383478651, "name": "Rasa Umara", "amenity": "restaurant", "cuisine": "indonesian", "kelurahan": null, "kecamatan": "Cikarang Selatan", "jalan": null, "desa": "Sukaresmi"}}, {"type": "Feature", "geometry": {"type": "Point", "coordinates": [107.1398727, -6.3330758]}, "properties": {"osm_type": "way", "osm_id": 1383478657, "name": "Popeyes", "amenity": "fast_food", "cuisine": "chicken", "kelurahan": null, "kecamatan": "Cikarang Selatan", "jalan": null, "desa": "Sukaresmi"}}, {"type": "Feature", "geometry": {"type": "Point", "coordinates": [107.1317492, -6.3295936]}, "properties": {"osm_type": "way", "osm_id": 1383532318, "name": "J.Co", "amenity": "fast_food", "cuisine": "donut;coffee_shop", "kelurahan": null, "kecamatan": "Cikarang Selatan", "jalan": null, "desa": "Sukaresmi"}}, {"type": "Feature", "geometry": {"type": "Point", "coordinates": [107.0212562, -6.1657279]}, "properties": {"osm_type": "way", "osm_id": 1416517388, "name": "GDeCe Food Garden", "amenity": "food_court", "cuisine": null, "kelurahan": null, "kecamatan": "Babelan", "jalan": null, "desa": "Babelan Kota"}}, {"type": "Feature", "geometry": {"type": "Point", "coordinates": [107.1579349, -6.2582198]}, "properties": {"osm_type": "way", "osm_id": 1488742874, "name": "Solaria", "amenity": "restaurant", "cuisine": "indonesian", "kelurahan": null, "kecamatan": "Cikarang Utara", "jalan": null, "desa": "Karangasih"}}, {"type": "Feature", "geometry": {"type": "Point", "coordinates": [106.9987424, -6.1607467]}, "properties": {"osm_type": "way", "osm_id": 1526767247, "name": "Sop Mak Garang", "amenity": "restaurant", "cuisine": "indonesian", "kelurahan": null, "kecamatan": "Babelan", "jalan": null, "desa": "Kebalen"}}, {"type": "Feature", "geometry": {"type": "Point", "coordinates": [107.1106556, -6.2558272]}, "properties": {"osm_type": "way", "osm_id": 1530958935, "name": "Mokopi", "amenity": "cafe", "cuisine": null, "kelurahan": null, "kecamatan": null, "jalan": null, "desa": "Telagamurni"}}, {"type": "Feature", "geometry": {"type": "Point", "coordinates": [107.1102236, -6.2545601]}, "properties": {"osm_type": "way", "osm_id": 1530958936, "name": "Solaria", "amenity": "restaurant", "cuisine": "indonesian", "kelurahan": null, "kecamatan": null, "jalan": null, "desa": "Telagamurni"}}]}